University,Domain,Street,City,State,Zip,Country,Latitude,Longitude,GooglePlacesId
Abilene Christian University,acu.edu,1600 Campus Ct, Abilene,TX,79601, United States,32.469732,-99.708098,ChIJiflo2s6RVoYRa7kIvLJ0ajs
Adelphi University,adelphi.edu,1 South Ave, Garden City,NY,11530, United States,40.719728,-73.6517116,ChIJnTYp4TJ9wokR0w2mZ2cYg4I
Agnes Scott College,scottlan.edu,141 E College Ave, Decatur,GA,30030, United States,33.7692226,-84.2945537,ChIJO_V-rDkH9YgRgR0-GHNw19I
Air Force Institute of Technology,afit.af.mil,2950 Hobson Way, Wright-Patterson AFB,OH,45433, United States,39.782736,-84.0827573,ChIJAQAAAJydQIgRmN2Qfne7EEc
Alabama A&M University,aamu.edu,4900 Meridian St N, Huntsville,AL,35811, United States,34.7846326,-86.572031,ChIJDy42HzsVYogR-SryyHDBsQ0
Alabama State University,alasu.edu,915 S Jackson St, Montgomery,AL,36104, United States,32.3636619,-86.2940544,ChIJX03sJ6eBjogRdTBeMsda_SI
Alaska Pacific University,alaskapacific.edu,4101 University Dr, Anchorage,AK,99508, United States,61.1910518,-149.8027203,ChIJsU8plvyWyFYR_F8cymU_CKE
Albertson College of Idaho,acofi.edu,2112 Cleveland Blvd, Caldwell,ID,83605, United States,43.653597,-116.6768761,ChIJVUoeKXC0r1QRdzb3yFjhTcE
Albion College,albion.edu,611 E Porter St, Albion,MI,49224, United States,42.2440064,-84.7451775,ChIJB6ux9w9FPYgRWj5Ptc84xTk
Alderson-Broaddus College,ab.edu,101 College Hill Rd, Philippi,WV,26416, United States,39.1559302,-80.0487248,ChIJIboJpjP0SogRN6-8Fo6Jhz4
Alfred University,alfred.edu,1 Saxon Dr, Alfred,NY,14802, United States,42.2558218,-77.786103,ChIJexAFwa2N0YkRL61Rraj8oug
Allegheny College,alleg.edu,520 N Main St, Meadville,PA,16335, United States,41.649349,-80.1449494,ChIJcR-143hXMogRu2kOhS8rNik
Allentown College of Saint Francis de Sales,allencol.edu,2755 Station Ave, Center Valley,PA,18034, United States,40.5387807,-75.3792986,ChIJazo3FQU9xIkROSvxOjw6nTU
Alma College,alma.edu,614 W Superior St, Alma,MI,48801, United States,43.379011,-84.669939,ChIJ2UjgGpUUIogRnXJpXLt0dqM
Alverno College,alverno.edu,3400 S 43rd St, Milwaukee,WI,53234, United States,42.9835246,-87.9636173,ChIJDyXkWIsQBYgRrYaWfOL4gUg
American Coastline University,amercoastuniv.edu,925 N Spurgeon St, Santa Ana,CA,92701, United States,33.753034,-117.865238,ChIJk5l6M6bZ3IARQnSJJTlkROs
American Graduate School of International Management,t-bird.edu,1 Global Pl, Glendale,AZ,85306, United States,33.6208397,-112.1809319,ChIJS5Tm5A5pK4cRllD3vLqRJtM
American International College,aic.edu,1000 State St, Springfield,MA,1109, United States,42.112853,-72.557144,ChIJX5Bs3aTn5okRTTpuFvXFstI
American University,american.edu,4400 Massachusetts Ave NW, Washington,DC,20016, United States,38.9399652,-77.0880213,ChIJ9Z3DD-PJt4kRtJnwx1EY1Zs
Amherst College,amherst.edu,61 Quadrangle Dr,Amherst,MA,1002, United States,42.3709104,-72.5170028,ChIJjzZMG_jN5okRvCYRnhDnGUo
Andrews University,andrews.edu,8975 Old U.S. 31, Berrien Springs,MI,49104, United States,41.9637177,-86.3626873,ChIJXWYs8D7REIgR2-8LEi1IOMI
Angelo State University,angelo.edu,2601 West Avenue North, San Angelo,TX,76904, United States,31.4382686,-100.4602762,ChIJJ7Kq9ZvlV4YRQN5f9Q7W7cc
Antioch College,college.antioch.edu,1 Morgan Pl, Yellow Springs,OH,45387, United States,39.7993346,-83.8877186,ChIJRT0yJPWgQIgRWijYueNDxWE
Antioch New England,antiochne.edu,40 Avon St, Keene,NH,3431, United States,42.9317822,-72.2938339,ChIJJVhW4Hxz4YkR39t1YPz73qI
Antioch University-Los Angeles,antiochla.edu,400 Corporate Pointe, Culver City,CA,90230, United States,33.9885584,-118.3845397,ChIJ_5i_21a3woAROOFhDQgKdxQ
Antioch University-Seattle,seattleantioch.edu,2400 3rd Ave #200, Seattle,WA,98121, United States,47.6159205,-122.3462821,ChIJrQEFl04VkFQRWH2a-fB3kn4
Appalachian State University,appstate.edu,287 Rivers St, Boone,NC,28608, United States,36.2134842,-81.6841448,ChIJISOb8k76UIgRPHSnzge3TRw
Aquinas College,aquinas.edu,1700 Fulton St E, Grand Rapids,MI,49506, United States,42.9603278,-85.6285917,ChIJkeocbz6tGYgREnAXz3GbiXs
Arizona State University,asu.edu,550 N. 3rd Street,Tempe,AZ,85281, United States,33.4242399,-111.9280527,ChIJD1QzO9sIK4cRMzA8R39xbmY
Arizona State University East,asu.edu,7001 E Williams Field Rd, Mesa,AZ,85212, United States,33.3039317,-111.6789633,ChIJ-c0dQ52tK4cR0o7GfBfBnC0
Arizona State University West,asu.edu,4701 W Thunderbird Rd, Glendale,AZ,85306, United States,33.6075228,-112.1598496,ChIJi7CNmFxpK4cRvUmZGyMWMc4
Arizona Western College,awc.cc.az.us,2020 S Ave 8 E, Yuma,AZ,85365, United States,32.6878786,-114.4974884,ChIJ0XjS0UBg1oARM_Zu7GJCRFU
Arkansas State University Jonesboro,astate.edu,2105 Aggie Rd, Jonesboro,AR,72401, United States,35.8430861,-90.6748589,ChIJObmqouEr1IcRmtRlZyTRkXs
Arkansas Tech University,atu.edu,215 West O Street, Russellville,AR,72801, United States,35.2944535,-93.1362663,ChIJ9ySKZghTzIcRCRnEXQv03Ao
Armstrong State College,armstrong.edu,11935 Abercorn St, Savannah,GA,31419, United States,31.9782161,-81.1633412,ChIJJ9h8y0oL-4gRwGkG9vib3wo
Ashland University,ashland.edu,401 College Ave, Ashland,OH,44805, United States,40.8619296,-82.323051,ChIJm4UEhLXkOYgRsxk3gv3HBSM
Assumption College,assumption.edu,500 Salisbury St, Worcester,MA,1609, United States,42.2947143,-71.8289631,ChIJa_0Gkx4H5IkRGxa19CIpRwo
Athens State College,athens.edu,300 N Beaty St, Athens,AL,35611, United States,34.8054077,-86.9650947,ChIJlyk1rEGLYogRS5aFPBTkBPE
Auburn University,auburn.edu,182 S College St,Auburn,AL,36849, United States,32.5933574,-85.4951663,ChIJryBmEQvzjIgR9xLXUVxSkOw
Auburn University - Montgomery,aum.edu,7400 East Dr, Montgomery,AL,36117, United States,32.3697457,-86.1766584,ChIJQQitrgosjIgRAKo84988PYI
Augsburg College,augsburg.edu,2211 Riverside Ave, Minneapolis,MN,55454, United States,44.9663002,-93.2401366,ChIJncjKGEcts1IRVUIroFQt0CI
Augustana College,IL augustana.edu,639 38th St, Rock Island,IL,61201, United States,41.5051053,-90.5507098,ChIJA2HcF10OCYgRe9wwwIbyKjY
Augustana College,SD augie.edu,639 38th St, Rock Island,IL,61201, United States,41.5051053,-90.5507098,ChIJA2HcF10OCYgRe9wwwIbyKjY
Aurora University,aurora.edu,347 S Gladstone Ave, Aurora,IL,60506, United States,41.7545293,-88.3496396,ChIJdxzDcmTlDogRyjEmrXVN-Gc
Austin College,austinc.edu,900 N. Grand Ave, Sherman,TX,75090, United States,33.64626,-96.594854,ChIJQ65wo2uITIYR4Y11a6gfo4M
Austin Peay State University,apsu.edu,601 College St, Clarksville,TN,37044, United States,36.53498,-87.3548855,ChIJn-h5Q7PZZIgRh2Tv9iC5tjA
Averett College,averett.edu,420 W Main St, Danville,VA,24541, United States,36.5791147,-79.414658,ChIJ84kRVWWzUogR6i9bSxDir0Y
Azusa Pacific University,apu.edu,901 E Alosta Ave, Azusa,CA,91702, United States,34.1300755,-117.8883593,ChIJJZO_UsYnw4ARMQeK6E2-ads
Babson College,babson.edu,231 Forest St, Babson Park,MA,2457, United States,42.2993708,-71.2659951,ChIJ7xQZi0GB44kRiWrnmTgf904
Baldwin-Wallace College,baldwinw.edu,275 Eastland Rd, Berea,OH,44017, United States,41.3711165,-81.8478088,ChIJ0w_1Oj_rMIgRNAqch3T9QEw
Ball State University,bsu.edu,2000 W University Ave, Muncie,IN,47306, United States,40.2061028,-85.406986,ChIJIR58aWY9FYgR9ImfGJvu4OQ
Baker University,bakeru.edu,618 Eighth St, Baldwin City,KS,66006, United States,38.7780272,-95.1880247,ChIJoe0ocHdbv4cRvngmTl_cm9A
Baptist Bible College,bbc.edu,628 E Kearney St, Springfield,MO,65803, United States,37.2397278,-93.2853642,ChIJFcx5rpBiz4cRcI4jquUC8Kk
Bard College,bard.edu,30 Campus Rd, Annandale-On-Hudson,NY,12504, United States,42.0203897,-73.9100544,ChIJq-mVpW0K3YkRHnPxQtEGusM
Barry University,barry.edu,11300 NE 2nd Ave, Miami Shores,FL,33161, United States,25.879072,-80.196161,ChIJEfyg7-2x2YgRoVV1iIOh6H0
Bastyr University,bastyr.edu,14500 Juanita Dr NE, Kenmore,WA,98028, United States,47.7305274,-122.2500693,ChIJnRwFJYsRkFQROneR-ndSD9Y
Bates College,bates.edu,2 Andrews Rd, Lewiston,ME,4240, United States,44.1057216,-70.2021865,ChIJ1a5W4ZVrskwR4r4KxE85CQ4
Baylor College of Medicine,bcm.tmc.edu,1 Baylor Plaza, Houston,TX,77030, United States,29.710523,-95.39624,ChIJ33w1MnfAQIYRkP5-Lt3RhxQ
Baylor University,baylor.edu,1301 S University Parks Dr, Waco,TX,76706, United States,31.549841,-97.1143146,ChIJkebHSWqCT4YR3df3-lbTamM
Belmont University,belmont.edu,1900 Belmont Blvd, Nashville,TN,37212, United States,36.1328981,-86.7940699,ChIJ0YlaaidkZIgR6QquhCjLJLo
Beloit College,beloit.edu,700 College St, Beloit,WI,53511, United States,42.5030333,-89.0309048,ChIJBchm5CahCIgRLbbEDEzoELY
Bemidji State University,bemidji.msus.edu,1500 Birchmont Dr NE, Bemidji,MN,56601, United States,47.4858403,-94.8747714,ChIJE1AXSJQtuFIRw1GLfVknJRQ
Benedictine College,benedictine.edu,1020 North 2nd Street, Atchison,KS,66002, United States,39.5731522,-95.1113744,ChIJ5zoon_D0v4cR60nbk1WCbWU
Bennington College,bennington.edu,1 College Dr, Bennington,VT,5201, United States,42.9203078,-73.2359361,ChIJMzU4rS-X4IkRyAGfgFcnLww
Bentley College,bentley.edu,175 Forest St, Waltham,MA,2452, United States,42.3856989,-71.22168,ChIJRxq6yTad44kRqpAmDsj5H4Y
Berea College,berea.edu,220 North Main Street, Berea,KY,40404, United States,37.575152,-84.288134,ChIJKQ0gduvhQogRPmTBZrxI8k0
Berklee College of Music,berklee.edu,1140 Boylston Street,Boston,MA,2215, United States,42.3465952,-71.0895292,ChIJpe-sIBt644kRNTjLbBiw4bM
Bethany College,CA bethany.edu,31 S Loop Campus Dr, Bethany,WV,26032, United States,40.206055,-80.559834,ChIJR5sLYGTMNYgRMiiSe9NhzNk
Bethany College,WV bethany.wvnet.edu,31 S Loop Campus Dr, Bethany,WV,26032, United States,40.206055,-80.559834,ChIJR5sLYGTMNYgRMiiSe9NhzNk
Bethel College,KS bethelks.edu,1001 Bethel Circle, Mishawaka,IN,46545, United States,41.678297,-86.196199,ChIJf2dC58HNFogRb1W460Xop8g
Bethel College and Seminary,MN bethel.edu,3900 Bethel Dr, St Paul,MN,55112, United States,45.0587642,-93.1611157,ChIJb1zMgxAps1IRVrJzfICGzvQ
Biola University,biola.edu,13800 Biola Ave, La Mirada,CA,90639, United States,33.9061645,-118.0147968,ChIJx813G6gs3YARA-M-wF0K9_I
Birmingham-Southern College,bsc.edu,900 Arkadelphia Rd, Birmingham,AL,35254, United States,33.5160987,-86.8511644,ChIJr0qpM0kciYgRDRyGql_ofhA
Black Hills State University,bhsu.edu, 1200 University St, Spearfish,SD,57799, United States,44.49651,-103.8711895,ChIJUeG8NMmZMlMRcU813YLEurA
Bloomsburg University of Pennsylvania,bloomu.edu,400 E 2nd St, Bloomsburg,PA,17815, United States,41.0081119,-76.4472749,ChIJN7RsJGWHxYkRGxgM-DBieMY
Bluffton College,bluffton.edu,1 University Drive, Bluffton,OH,45817, United States,40.8968793,-83.8991674,ChIJq3QXYMi9PogRzgRiEJLmvUA
Bob Jones University,bju.edu,1700 Wade Hampton Blvd, Greenville,SC,29614, United States,34.872504,-82.362872,ChIJbyf0UWwuWIgRX4vx5-qANCM
Boise State University,idbsu.edu,1910 W University Dr, Boise,ID,83725, United States,43.6033127,-116.201649,ChIJySB7fPb4rlQRVrObbyRbqyQ
Boston College,bc.edu,140 Commonwealth Avenue,Chestnut Hill,MA,2467, United States,42.3355488,-71.1684945,ChIJydQlp11444kRbuu4pZCuaAs
Boston Graduate School of Psychoanalysis,bgsp.edu,1581 Beacon St, Brookline,MA,2446, United States,42.3391142,-71.1331033,ChIJnb6IgrB544kRdcF3X1_k1OY
Boston University,bu.edu,One Silber Way,Boston,MA,2215, United States,42.3504997,-71.1053991,ChIJFzjlY_B544kRyL6j4ABuNCs
Bowdoin College,bowdoin.edu,255 Maine St, Brunswick,ME,4011, United States,43.9070109,-69.9652364,ChIJA6g7ND6HrUwRCXY3zMcImwo
Bowie State University,bsu.umd.edu,14000 Jericho Park Rd, Bowie,MD,20715, United States,39.0192914,-76.7594039,ChIJHVnaNeDot4kR0QHvNcY0Myk
Bowling Green State University,bgsu.edu,1418 Ridge St,Bowling Green,OH,43403, United States,41.3797788,-83.6300826,ChIJ4Tqo5VAKPIgRAzVTIC9tuCY
Bradley University,bradley.edu,1501 W Bradley Ave, Peoria,IL,61625, United States,40.6977743,-89.6153484,ChIJgR_ZrUdZCogRj1gzkhkaNfY
Brandeis University,brandeis.edu,415 South St, Waltham,MA,2453, United States,42.364989,-71.258663,ChIJL1wetD2D44kRrjNOWrq8etY
Brenau University,brenau.edu,500 Washington St SE, Gainesville,GA,30501, United States,34.3049909,-83.8200016,ChIJqQu-v_b29YgR9H_6aeeBDFg
Briar Cliff College,briar-cliff.edu,3303 Rebecca St, Sioux City,IA,51104, United States,42.5270102,-96.4270388,ChIJZSh5FuAHjocRALaF0O6aZeM
Bridgewater College,bridgewater.edu,402 E College St, Bridgewater,VA,22812, United States,38.378879,-78.969386,ChIJSVBTOIGWtIkR5fRndyC2AMg
Brigham Young University,byu.edu,150 E Bulldog Blvd,Provo,UT,84602, United States,40.2518435,-111.6493156,ChIJjbagSryQTYcRTNwP86OzPr8
Brigham Young University Hawaii,byuh.edu,55-220 Kulanui St, Laie,HI,96762, United States,21.6420138,-157.925331,ChIJsVc3WWhFAHwRg1r6JxfxX1s
Brown University,brown.edu,69 Brown St,Providence,RI,2912, United States,41.8267718,-71.4025482,ChIJKY6zkCRF5IkRyyCi9_xpfgs
Bryant College,bryant.edu,1150 Douglas Pike, Smithfield,RI,2917, United States,41.921192,-71.537882,ChIJWaAdluhA5IkR2lc-QymlVFk
Bryn Mawr College,brynmawr.edu,101 N Merion Ave, Bryn Mawr,PA,19010, United States,40.0281065,-75.3152341,ChIJazx-cI2_xokRROA-Ik6hyk0
Bucknell University,bucknell.edu,701 Moore Ave, Lewisburg,PA,17837, United States,40.9546869,-76.8835514,ChIJ3U7mfLwTz4kR-em5PjbPbPM
Buena Vista University,bvu.edu,610 W 4th St, Storm Lake,IA,50588, United States,42.6410826,-95.2098122,ChIJi7GwUGxPjYcRvdSF4WiE5r4
Butler University,butler.edu,4600 Sunset Ave, Indianapolis,IN,46208, United States,39.8411235,-86.1711908,ChIJr8OliPpTa4gRPkUtyy7TxQM
California Coast University,calcoastuniv.edu,925 N Spurgeon St, Santa Ana,CA,92701, United States,33.753034,-117.865238,ChIJk5l6M6bZ3IARQnSJJTlkROs
California Institute of Technology,caltech.edu,1200 E California Blvd, Pasadena,CA,91125, United States,34.1376576,-118.125269,ChIJkXuZ6qfEwoARGt1hGtDnmTQ
California Lutheran University,callutheran.edu,60 W Olsen Rd, Thousand Oaks,CA,91360, United States,34.2250167,-118.8788537,ChIJicFmBTcw6IAR9GKnnJ9saRg
California Maritime Academy,csum.edu,200 Maritime Academy Dr, Vallejo,CA,94590, United States,38.069706,-122.2306447,ChIJNd81ecVzhYARJNzTosEp3u4
California Polytechnic State University San Luis Obispo,calpoly.edu,1 Grand Avenue,San Luis Obispo,CA,93407, United States,35.3050053,-120.6624942,ChIJUTVMBbTx7IARA5HZKYq0s5g
California State Polytechnic University Pomona,csupomona.edu,3801 W Temple Ave, Pomona,CA,91768, United States,34.0575651,-117.820741,ChIJYUPc46Uuw4AR6x7JIu3kSpA
California State University System,calstate.edu,401 Golden Shore, Long Beach,CA,90802, United States,33.7643741,-118.2013529,ChIJL4n-wDMx3YARlZnxNYs3gNY
California State University Bakersfield,csubak.edu,CSUB Stockdale Hwy, Bakersfield,CA,93311, United States,35.348251,-119.103684,ChIJL3-sxwtC6oARCZdz5RKo8i4
California State University Chico,csuchico.edu,400 W 1st St, Chico,CA,95929, United States,39.729575,-121.8473287,ChIJ-ZsOQqUng4AReUcfkwSS-YI
California State University Dominguez Hills,csudh.edu,1000 E Victoria St, Carson,CA,90747, United States,33.8633706,-118.2552809,ChIJwxIJhsg03YARRaSU19fuJc0
California State University Fresno,csufresno.edu,5241 N Maple Ave, Fresno,CA,93740, United States,36.8133636,-119.7460937,ChIJ2_9-TgJdlIARZiH9gCKzR4o
California State University Fullerton,fullerton.edu,800 N State College Blvd, Fullerton,CA,92831, United States,33.8829226,-117.8869261,ChIJkRPGjM7V3IARVfNKubsQmCs
California State University Hayward,csuhayward.edu,25800 Carlos Bee Blvd, Hayward,CA,94542, United States,37.6563446,-122.0566765,ChIJD8tmKoqTj4ARNCkA6ahSj24
California State University Long Beach,csulb.edu,1250 Bellflower Blvd, Long Beach,CA,90840, United States,33.7838235,-118.1140904,ChIJQ_aCKdgx3YARqy3HziZ_3B8
California State University Los Angeles,calstatela.edu,5151 State University Dr, Los Angeles,CA,90032, United States,34.0667886,-118.1680902,ChIJWV2aEZjFwoARXlatgeRcSto
California State University Monterey Bay,monterey.edu,100 Campus Center, Seaside,CA,93955, United States,36.6529218,-121.7981631,ChIJV-Bh56j8jYAR_THyl3hDv80
California State University Northridge,csun.edu, 18111 Nordhoff St, Northridge,CA,91330, United States,34.2425947,-118.5280687,ChIJj2ayD1SawoARVirZh_OSEPA
California State University Sacramento,csus.edu,6000 J St, Sacramento,CA,95819, United States,38.5611436,-121.4240425,ChIJ2_TGMY3amoARgls_gjLcPXY
California State University San Bernardino,csusb.edu,5500 University Pkwy, San Bernardino,CA,92407, United States,34.1821786,-117.3235324,ChIJ18hFFptRw4ARInn08NJCwfo
California State University San Jose,sjsu.edu,1 Washington Sq, San Jose,CA,95192, United States,37.3351874,-121.8810715,ChIJ1UPeZLjMj4ARDjQ3GXL-fzk
California State University San Marcos,csusm.edu,333 S Twin Oaks Valley Rd, San Marcos,CA,92096, United States,33.1295574,-117.1599449,ChIJk6I2-FT124AR5FvcH4sXyVU
California State University Sacramento,csus.edu,6000 J St, Sacramento,CA,95819, United States,38.5611436,-121.4240425,ChIJ2_TGMY3amoARgls_gjLcPXY
California State University Stanislaus,csustan.edu,1 University Cir, Turlock,CA,95382, United States,37.5245713,-120.8568887,ChIJG8Ui1RgHkYAReo70R3tWFIc
California University of Pennsylvania,cup.edu,250 University Ave, California,PA,15419, United States,40.0641103,-79.8842797,ChIJRw1YQfsaNYgR6rDVs58EIJA
Calvin College,calvin.edu,3201 Burton St SE, Grand Rapids,MI,49546, United States,42.9295084,-85.5889329,ChIJVylN1FtNGIgRgqHyhtrBVp0
Campbell University,campbell.edu,143 Main St, Buies Creek,NC,27506, United States,35.4083372,-78.7394297,ChIJFXrUKPOBrIkR1qc1l1_25hw
Campbellsville College,campbellsvil.edu,1 University Dr, Campbellsville,KY,42718, United States,37.3430956,-85.3494324,ChIJd7fDOy9yaIgR49okxf4S5H4
Cameron University,cameron.edu,2800 W Gore Blvd, Lawton,OK,73505, United States,34.6049663,-98.436244,ChIJT12gQQYfrYcRT6m80cV7Wlk
Canisius College,canisius.edu,2001 Main St, Buffalo,NY,14208, United States,42.9248338,-78.8514848,ChIJ_dHzbrsS04kRrTaIBqlfJh8
Carleton College,carleton.edu,1 North College Street, Northfield,MN,55057, United States,44.4613041,-93.1560839,ChIJg3HynrFT9ocR02rogM69VSs
Carnegie Mellon University,cmu.edu,5000 Forbes Ave, Pittsburgh,PA,15213, United States,40.4428081,-79.9430128,ChIJn5pnWB_yNIgR9NrEH0ZrcYg
Carroll College,MT carroll.edu,1601 N Benton Ave, Helena,MT,59625, United States,46.600734,-112.03888,ChIJqS9LjORUQ1MRYgN_IP7ofE0
Carroll College,WI cc.edu,1601 N Benton Ave, Helena,MT,59625, United States,46.600734,-112.03888,ChIJqS9LjORUQ1MRYgN_IP7ofE0
Carson-Newman College,cn.edu,1646 Russell Ave, Jefferson City,TN,37760, United States,36.1215905,-83.4899055,ChIJe5XSMIyMW4gRqFweVa1e6fo
Carthage College,carthage.edu,2001 Alford Park Drive, Kenosha,WI,53140, United States,42.6238133,-87.8198185,ChIJW9KAyc5dBYgRs6VmDl_uVtc
Case Western Reserve University,cwru.edu,10900 Euclid Ave, Cleveland,OH,44106, United States,41.5043413,-81.6083838,ChIJLRJYNon7MIgRkQuwe-BpkHE
Castleton State University,csc.vsc.edu,62 Alumni Dr, Castleton,VT,5735, United States,43.6077824,-73.1802563,ChIJVRHWPfgZ4IkR5EK9JooYLrI
The Catholic University of America,cua.edu,620 Michigan Ave NE, Washington,DC,20064, United States,38.9368811,-76.998692,ChIJBadQTuXHt4kR_aRJlv1GKxY
Cedarville College,cedarville.edu,251 N Main St, Cedarville,OH,45314, United States,39.7495714,-83.8126484,ChIJ607hjo2mQIgR193imL3NdBw
Centenary College of Louisiana,centenary.edu,2911 Centenary Blvd, Shreveport,LA,71104, United States,32.4847432,-93.7321556,ChIJlZgjvKcyMYYRhiDDuX8WW7I
Central College,central.edu,812 University St, Pella,IA,50219, United States,41.400595,-92.919667,ChIJ8dmJ5Cov74cRhHrknW_MiSQ
Central Connecticut State University,ccsu.ctstateu.edu,1615 Stanley St, New Britain,CT,6053, United States,41.693255,-72.764167,ChIJpeAV62ay54kR-3E8Z-hkKqk
Central Methodist College,cmc.edu,411 Central Methodist Square, Fayette,MO,65248, United States,39.1513054,-92.6840613,ChIJpVVcb5Ekw4cR6q-zr5uaiTk
Central Michigan University,cmich.edu,1200 S. Franklin St, Mt Pleasant,MI,48859, United States,43.5819086,-84.7756364,ChIJ7aQjxrMEIogRHzx5Xh86xMM
Central Missouri State University,cmsu.edu,108 W South St, Warrensburg,MO,64093, United States,38.7580823,-93.7383724,ChIJZeIPLVT9w4cRgKJae2FUSGE
Central Washington University,cwu.edu,400 E University Way, Ellensburg,WA,98926, United States,47.0067549,-120.5360182,ChIJI8Zk1rvzmVQRqsdxMMl_wfY
Centre College,centre.edu,600 W Walnut St, Danville,KY,40422, United States,37.6456916,-84.7815059,ChIJgyufx3uaQogRmD2-gh76sxY
Chadron State College,csc.edu,1000 Main St, Chadron,NE,69337, United States,42.8198689,-103.0015725,ChIJUQaMhQdue4cR_ts6pszNWaQ
Champlain College,champlain.edu,163 S Willard St, Burlington,VT,5401, United States,44.4731165,-73.2041352,ChIJDavHSVd6ykwR2N8anIoJn6A
Chapman University,chapman.edu,1 University Dr, Orange,CA,92866, United States,33.7933476,-117.8513503,ChIJ7-jW2eHZ3IAR7KhyG8Unu24
Chatham College,chatham.edu,1 Woodland Rd, Pittsburgh,PA,15232, United States,40.4482193,-79.9242625,ChIJtRafPAbyNIgR1PXf5djjCWE
Chesapeake College,chesapeake.edu,1000 College Cir, Wye Mills,MD,21679, United States,38.95213,-76.0836733,ChIJoxuDHTNtuIkRr0c6a-u1IG4
Cheyney University,cheyney.edu,1837 University Cir, Cheyney,PA,19319, United States,39.933272,-75.5295088,ChIJ5WQLTNbxxokRwOW4fDaY3v4
The Chicago School of Professional Psychology,csopp.edu,325 N Wells St, Chicago,IL,60654, United States,41.8881532,-87.6337102,ChIJDSHRKLcsDogRDnZ718cjemM
Christian Brothers University,cbu.edu,650 E Pkwy S, Memphis,TN,38104, United States,35.1285367,-89.9810643,ChIJCcsdlcqAf4gRMWgPUVpETgI
Christian Theological Seminary,cts.edu,1000 W 42nd St, Indianapolis,IN,46208, United States,39.8331938,-86.1783417,ChIJAW1Tr6tWa4gR1gRGuDcoPv8
Christopher Newport University,cnu.edu,1 Ave of the Arts, Newport News,VA,23606, United States,37.0646188,-76.4944384,ChIJD4N-Vk54sIkR9fOy_AOTgKE
The Citadel,citadel.edu,171 Moultrie St, Charleston,SC,29409, United States,32.797075,-79.9606739,ChIJu_CFPE16_ogRCADFkyKTMTs
City University of New York,cuny.edu,205 E 42nd St, New York,NY,10017, United States,40.7509091,-73.973584,ChIJt7wdBQNZwokRXdNqewtTILg
Claremont Graduate School,cgs.edu,150 E 10th St, Claremont,CA,91711, United States,34.1040414,-117.7139694,ChIJ9QDDh7gxw4AREk_Gz4kNedQ
Claremont McKenna College,mckenna.edu,888 Columbia Ave, Claremont,CA,91711, United States,34.1017767,-117.7079219,ChIJQ1EYYbwxw4ARVGHRYa7NeEo
Clarion University of Pennsylvania,clarion.edu,840 Wood St, Clarion,PA,16214, United States,41.2089191,-79.3787136,ChIJE1XINDUzM4gR2l13hTzlxTg
Clark University,clarku.edu,950 Main St, Worcester,MA,1610, United States,42.2523452,-71.8246703,ChIJP_msHaOK44kRUh5dngYsMFU
Clarke College,clarke.edu,1550 Clarke Dr, Dubuque,IA,52001, United States,42.5092662,-90.6913801,ChIJlzDvHGIs44cRut42XZFSW40
Clarkson University,clarkson.edu,8 Clarkson Ave, Potsdam,NY,13699, United States,44.6637611,-74.998544,ChIJT00f9b9gzEwRkorlYMMUQJA
Clayton State College,csc.peachnet.edu,2000 Clayton State Blvd, Morrow,GA,30260, United States,33.5948497,-84.3281872,ChIJf6Gb0tz-9IgRZhCfoaPuixQ
Clemson University,clemson.edu,201 Sikes Hall,Clemson,SC,29634, United States,34.6760942,-82.8364148,ChIJjWWrNRFeWIgRVo4qecsZMo0
Cleveland State University,csuohio.edu,2121 Euclid Ave, Cleveland,OH,44115, United States,41.5024973,-81.6747185,ChIJ4YtfzWP6MIgRbq3SEWa5qQs
Coastal Carolina University,coastal.edu,100 Chanticleer Dr E, Conway,SC,29528, United States,33.7949658,-79.01173,ChIJXzzkkiltAIkRec54KOLJVxM
Coe College,coe.edu,1220 1st Ave NE, Cedar Rapids,IA,52402, United States,41.9884283,-91.6591287,ChIJfetrb7Xw5IcRyjIyS5tAbxk
Coker College,coker.edu,300 E College Ave, Hartsville,SC,29550, United States,34.3765882,-80.0704915,ChIJ17YNitt1VYgRPV8XYzg1iTs
Colby College,colby.edu,4000 Mayflower Hill Dr, Waterville,ME,4901, United States,44.5638691,-69.6626362,ChIJReBdkFDksUwR0PEv4hXiITg
Colgate University,colgate.edu,13 Oak Dr, Hamilton,NY,13346, United States,42.8166152,-75.5401764,ChIJ2S_7-mTX24kRk6cZF0dK0X0
College of the Atlantic,coa.edu,105 Eden St, Bar Harbor,ME,4609, United States,44.394424,-68.2225669,ChIJO5T8BYG_rkwRlNECms2iqcY
College of Charleston,cofc.edu,66 George St, Charleston,SC,29424, United States,32.7836117,-79.9371762,ChIJAalRvBR6_ogRaUueAjfpndU
College of Eastern Utah,ceu.edu,451 E 400 N, Price,UT,84501, United States,39.6078198,-110.8019275,ChIJ-ebdgFa5TocRUEIcMxsGGUU
College of the Holy Cross,holycross.edu,1 College St, Worcester,MA,1610, United States,42.2392391,-71.8079608,ChIJQ-Vd_cwF5IkRYsjVU9iyQUE
College of Saint Catherine,stkate.edu,2004 Randolph Ave, St Paul,MN,55105, United States,44.925308,-93.182822,ChIJ5b9pkIYp9ocRtlJ3m9lmFK0
College of St. Francis,stfrancis.edu,500 Wilcox St, Joliet,IL,60435, United States,41.5333799,-88.0970978,ChIJgYisoDFhDogRjj5Sormv5cU
College of Saint Rose,strose.edu,432 Western Ave, Albany,NY,12203, United States,42.6640994,-73.7856653,ChIJEeqTdlEK3okR1u_eER6f0QM
College of St. Scholastica,css.edu,1200 Kenwood Ave, Duluth,MN,55811, United States,46.8161783,-92.1060949,ChIJAeKdikWtr1IRb9mCn6PDIys
College of William and Mary,wm.edu, 200 Stadium Dr, Williamsburg,VA,23185, United States,37.271674,-76.713378,ChIJMWOHJcN4sIkRte0qJwGuwco
The College of Wooster,wooster.edu,1189 Beall Ave, Wooster,OH,44691, United States,40.8110501,-81.9336187,ChIJH0LJ6mlGN4gRxI-bo3cbn5E
Colorado Christian University,ccu.edu,8787 W Alameda Ave, Lakewood,CO,80226, United States,39.7125682,-105.0945084,ChIJ1f1zCTqBa4cRu02zj2iUOns
Colorado College,cc.colorado.edu,14 E Cache La Poudre St, Colorado Springs,CO,80903, United States,38.846594,-104.824394,ChIJR32_Z0BFE4cReq-Fr71vqAE
Colorado School of Mines,mines.colorado.edu,1500 Illinois St, Golden,CO,80401, United States,39.7510136,-105.2225705,ChIJo4i2VNSaa4cR_GT8qcLqY2o
Colorado State University,colostate.edu,1062 Campus Delivery,Fort Collins,CO,80523, United States,40.573436,-105.0865473,ChIJqZvW7DNKaYcRES8-ClBS0kU
Columbia College Chicago,colum.edu,600 S Michigan Ave, Chicago,IL,60605, United States,41.8742257,-87.6244445,ChIJT6jWuJgsDogRtQixeKA67IM
Columbia Southern University,colsouth.edu,21982 University Ln, Orange Beach,AL,36561, United States,30.3292553,-87.6530263,ChIJAe-K4nsPmogRFQz9hkNEpAs
Columbia Union College,cuc.edu,7600 Flower Ave, Takoma Park,MD,20912, United States,38.9859708,-77.0005571,ChIJfdY-XRjGt4kR6pXfRYMeo2s
Columbia University,columbia.edu,116th St & Broadway, New York,NY,10027, United States,40.8075355,-73.9625727,ChIJyQ3Tlj72wokRUCflR_kzeVc
Concordia College-Ann Arbor,ccaa.edu,4090 Geddes Rd, Ann Arbor,MI,48105, United States,42.2745064,-83.6817391,ChIJ_Z5ILcquPIgRZMeBxWLgK_0
Concordia College-Moorhead,cord.edu,901 8th St S, Moorhead,MN,56562, United States,46.8628042,-96.7700579,ChIJK4gMFErJyFIRa2K12jnWtNM
Concordia College-St. Paul,csp.edu,1282 Concordia Ave, St Paul,MN,55104, United States,44.9490518,-93.1565822,ChIJG9X3oHMq9ocRL2-k08Jlr2k
Concordia College-Seward,ccsn.edu,800 N Columbia Ave, Seward,NE,68434, United States,40.9143712,-97.0896219,ChIJXw7bZeLXlocR5kS9tuMo97M
Concordia University River Forest Illinois,cuis.edu,7400 Augusta St, River Forest,IL,60305, United States,41.89971,-87.809536,ChIJNY1jxyzLD4gRSHHuaiuxLAw
Connecticut College,conncoll.edu,270 Mohegan Avenue, New London,CT,6320, United States,41.3786877,-72.1045869,ChIJJaWq8dAN5okRWWEZ5yDW6tw
The Cooper Union for the Advancement of Science and Art,cooper.edu,30 Cooper Sq, New York,NY,10003, United States,40.7280822,-73.9916086,ChIJ3_Ehc5tZwokRRjbJ4YcwWxQ
Coppin State College,coppin.umd.edu,2500 W North Ave, Baltimore,MD,21216, United States,39.3126142,-76.6579056,ChIJ1YBLTkcbyIkRFw4tUTf-5n0
Cornell College,cornell-iowa.edu,600 1st St, Mt Vernon,IA,52314, United States,41.9269546,-91.4253502,ChIJE-M_H-qJ5IcRotgmk9dspuo
Cornell University,cornell.edu,201 Thayer St,Ithaca,NY,14850, United States,42.4534492,-76.4735027,ChIJndqRYRqC0IkR9J8bgk3mDvU
Creighton University,creighton.edu,2500 California Plaza, Omaha,NE,68178, United States,41.2653105,-95.9471919,ChIJw11JC0mOk4cRbKw5uaYQAjM
Curry College,curry.edu,1071 Blue Hill Avenue, Milton,MA,2186, United States,42.2406763,-71.1148112,ChIJ1TQzQmx-44kRTupMEZ7kgU4
Daemen College,daemen.edu,4380 Main St, Amherst,NY,14226, United States,42.9648902,-78.7884384,ChIJlwUxxANz04kRRR5H-_PUpWc
Dakota State University,dsu.edu,820 Washington Ave N, Madison,SD,57042, United States,44.0124762,-97.1117345,ChIJpw6OKrriiIcRabb1p57J0Tc
Dakota Wesleyan University,dwu.edu,1200 W University Ave, Mitchell,SD,57301, United States,43.697665,-98.03122,ChIJdTWhLJwRhocRzRf3MdXo8PY
Dallas Baptist University,dbu.edu,3000 Mountain Creek Pkwy, Dallas,TX,75211, United States,32.7092263,-96.9469421,ChIJNREnFGOFToYRh285E4W2E4o
Dana College,dana.edu,2848 College Dr, Blair,NE,68008, United States,41.5501236,-96.1559915,ChIJvfQfHynEk4cRHRvSnkZ0lBk
Daniel Webster College,dwc.edu,20 University Dr, Nashua,NH,3063, United States,42.7757983,-71.5152703,ChIJbZPeafu244kRIljtu4k-pLM
Dartmouth College,dartmouth.edu,6025 College St,Hanover,NH,3755, United States,43.7044406,-72.2886935,ChIJEYl1T93JtEwRzAi5TUxXuL0
Davenport College Detroit College of Business,davenport.edu,27650 Dequindre Rd, Warren,MI,48092, United States,42.4954909,-83.0838405,ChIJwc00xv7PJIgR0WxmCcwPZ9A
Davidson College,davidson.edu,405 N Main St, Davidson,NC,28035, United States,35.5017318,-80.8467793,ChIJCcLJMUGqVogRb46hXZ_bG7s
Delaware State University,dsc.edu,1200 N Dupont Hwy, Dover,DE,19901, United States,39.1861372,-75.5422735,ChIJa0P8UTp7x4kRV10YW_t9SbU
Delta State University,deltast.edu,Highway 8  West, Cleveland,MS,38733,United States,33.7453784,-90.7354508,ChIJm0SgPIqoK4YRqk1lOTrOqnM
Denison University,denison.edu,100 W College St, Granville,OH,43023, United States,40.0734583,-82.5223309,ChIJGZaQk9M_OIgRpkF0Zzxf8YA
DePaul University,depaul.edu,990 W Fullerton Ave, Chicago,IL,60614, United States,41.9256728,-87.6533352,ChIJMbv5rBzTD4gRxaLTSiFTGdc
DeVry Institute of Technology,devrycols.edu,3005 Highland Pkwy #100, Downers Grove,IL,60515, United States,41.8333151,-88.0076967,ChIJFcxD_vlNDogRSYYnCOy1l4E
DeVry Institute of Technology-Dallas,devry.edu,4800 Regent Blvd #200, Irving,TX,75063, United States,32.9341973,-97.0123785,ChIJXWnUR9ErTIYRToJeQK8dCrE
DeVry Institute of Technology-Phoenix,devry-phx.edu,2149 W Dunlap Ave, Phoenix,AZ,85021, United States,33.5659695,-112.1042755,ChIJFQo8ePhsK4cRS1cMpebZ-tc
Dickinson College,dickinson.edu,28 N College St, Carlisle,PA,17013, United States,40.2027214,-77.197232,ChIJGX5zSyoeyYkRViBUZ1NlcwU
Dickinson State University,dsu.nodak.edu,291 Campus Dr, Dickinson,ND,58601, United States,46.8823226,-102.7995721,ChIJy_h8bxsYJlMRUFTQaVlc2Hc
Dillard University,dillard.edu,2601 Gentilly Blvd, New Orleans,LA,70122, United States,29.9966395,-90.0662662,ChIJ-YZ-AMioIIYRhul_MG4iMWA
Dominican College,dominican.edu,470 Western Hwy S, Orangeburg,NY,10962, United States,41.0471959,-73.9505947,ChIJjz9n-2vpwokR37OHgOWliw8
Dordt College,Dordt.edu,498 4th Ave NE, Sioux Center,IA,51250, United States,43.0824829,-96.1663608,ChIJ7yrcQOEzjIcRDvfCdBVqE9Q
Dowling College,dowling.edu,150 Idle Hour Blvd, Oakdale,NY,11769, United States,40.7422255,-73.1481218,ChIJOaHvTSU06IkR1caPgG7N-eo
Drake University,drake.edu,2507 University Ave, Des Moines,IA,50311, United States,41.6029128,-93.6552984,ChIJl2k_1kmZ7ocRQN_i9oCktgM
Drew University,drew.edu,36 Madison Ave, Madison,NJ,7940, United States,40.760567,-74.4269765,ChIJn-WdVuqlw4kRObRa2ReNGbA
Drexel University,drexel.edu,3141 Chestnut St, Philadelphia,PA,19104, United States,39.9566127,-75.1899441,ChIJKcBHSE7GxokR8DA8BOQt8w4
Drury College,drury.edu,900 N Benton Ave, Springfield,MO,65802, United States,37.2199706,-93.2862298,ChIJpzS8heViz4cRNxhdJf0XVbQ
Duke University,duke.edu,411 Chapel Dr,Durham,NC,27708, United States,36.0014258,-78.9382286,ChIJfzLrAbLmrIkRjaMc7lUWH7I
Duquesne University,duq.edu,600 Forbes Ave, Pittsburgh,PA,15282, United States,40.4372949,-79.9901728,ChIJa3PD-1vxNIgRZWumPoCHiMk
Earlham College,earlham.edu,801 National Rd W, Richmond,IN,47374, United States,39.8208853,-84.913052,ChIJPbhwJrEBQIgRDMD-hfH0UW0
East Carolina University,ecu.edu,E 5th St, Greenville,NC,27858, United States,35.6055108,-77.3645653,ChIJBxZ44pbnrokRO6nNpGL-N1I
East Central University,ecok.edu,1100 E 14th St, Ada,OK,74820, United States,34.772848,-96.659803,ChIJj8P7satus4cRNNm8cOCkLzc
East Stroudsburg State University of Pennsylvania,esu.edu,200 Prospect St, East Stroudsburg,PA,18301, United States,40.9970909,-75.172533,ChIJb6VN0oeIxIkRcroK_Zld2N4
East Tennessee State University,etsu-tn.edu,1276 Gilbreath Dr, Johnson City,TN,37614, United States,36.3025374,-82.3701933,ChIJ_ROfXcB8WogR8Qm-Esy7eq0
East Texas State University,etsu.edu,2200 Campbell St, Commerce,TX,75428, United States,33.2410476,-95.910376,ChIJMyKWwSXGS4YR5KnMJcu1zUE
Eastern Connecticut State University,ecsu.ctstateu.edu,83 Windham St, Willimantic,CT,6226, United States,41.721443,-72.2177529,ChIJRdM-U8Jj5okROyPrIbPgDVM
Eastern Illinois University,eiu.edu,600 Lincoln Ave, Charleston,IL,61920, United States,39.4780293,-88.1759052,ChIJGbS3YFodc4gRAO7JUamVi4Y
Eastern Kentucky University,eku.edu,521 Lancaster Ave, Richmond,KY,40475, United States,37.7353214,-84.298672,ChIJWe7_HLj9QogREpCajOKZedw
Eastern Mennonite University,emu.edu,1200 Park Rd, Harrisonburg,VA,22802, United States,38.4726203,-78.8773972,ChIJ51hdpybttIkRFuYOBYhHdRs
Eastern Michigan University,emich.edu,900 Oakwood St, Ypsilanti,MI,48197, United States,42.2506803,-83.624089,ChIJ9TNoGyupPIgRvbyZPIqSCZU
Eastern Nazarene College,enc.edu,23 E Elm Ave, Quincy,MA,2170, United States,42.2715247,-71.0108768,ChIJ24nF4lZ744kRMw822mSqZEk
Eastern New Mexico University,enmu.edu,1500 S Avenue K, Portales,NM,88130, United States,34.1789822,-103.347983,ChIJ19QnCC7GAocRFuBihB2ZXEA
Eastern Oregon State College,eosc.osshe.edu,One University Blvd, La Grande,OR,97850, United States,45.3211449,-118.0913683,ChIJpb5a9MCpsFQRiUbYFVfpe5U
Eastern Washington University,ewu.edu,526 5th St, Cheney,WA,99004, United States,47.4906163,-117.5854813,ChIJ4z_DL6A4nlQRr2cmvozrjLU
Edgewood College,edgewood.edu,1000 Edgewood College Dr, Madison,WI,53711, United States,43.060689,-89.423378,ChIJO67SheGsB4gRVtjWcG5qXno
Edinboro University of Pennsylvania,edinboro.edu,219 Meadville St, Edinboro,PA,16444, United States,41.871572,-80.1208028,ChIJu7OI8JRhMogRMri-8_n70AY
Elizabeth City State University,ecsu.edu,1704 Weeksville Rd, Elizabeth City,NC,27909, United States,36.281065,-76.2139598,ChIJB8kcwFJEpYkRXY29qdzouaU
Elizabethtown College,etown.edu,1 Alpha Dr, Elizabethtown,PA,17022, United States,40.1503251,-76.589792,ChIJMcdSzPaYyIkRHLxOkmLMwuU
Elmhurst College,elmhurst.edu,190 S Prospect Ave, Elmhurst,IL,60126, United States,41.895871,-87.945605,ChIJM5AZ5axMDogRniqhMRHI5ps
Elon College,elon.edu,50 Campus Drive, Elon,NC,27244, United States,36.1027527,-79.5023567,ChIJ3RFkxAkpU4gRCZzO6Zydjk4
Embry-Riddle Aeronautical University Arizona,erau.edu,3700 Willow Creek Rd, Prescott,AZ,86301, United States,34.6161042,-112.4507711,ChIJgRjaTJIvLYcR8XqezvrpjKs
Embry-Riddle Aeronautical University Florida,erau.edu,600 S Clyde Morris Blvd, Daytona Beach,FL,32114, United States,29.191617,-81.0500188,ChIJQ1vsOmvZ5ogREu7wijnvVBc
Emerson College,emerson.edu,120 Boylston St, Boston,MA,2116, United States,42.3520298,-71.0656551,ChIJuYoPRHZ644kRwZmrpE53jq4
Emmanuel College,emmanuel.edu,400 Fenway, Boston,MA,2115, United States,42.3412454,-71.1020244,ChIJP5J5VIt544kRcbZ7C7NjA1s
Emporia State University,emporia.edu,1 Kellogg Cir, Emporia,KS,66801, United States,38.413874,-96.180139,ChIJBfj7WSNMuYcRXdfSQMfliFw
Emory & Henry College,ehc.edu,201 Dowman Dr, Atlanta,GA,30322, United States,33.7925195,-84.3239989,ChIJHU-KgPcG9YgRVZzdN2J61Vg
Emory University,emory.edu,201 Dowman Dr, Atlanta,GA,30322, United States,33.7925195,-84.3239989,ChIJHU-KgPcG9YgRVZzdN2J61Vg
Evergreen State College,evergreen.edu,2700 Evergreen Pkwy NW, Olympia,WA,98505, United States,47.0733706,-122.9734736,ChIJ5ZV4FTGekVQRTqS75v_ltJM
Fairfield University,fairfield.edu,1073 N Benson Rd, Fairfield,CT,6824, United States,41.1587639,-73.2573625,ChIJg2g-ijIO6IkRCynq0lIK1XY
Fairleigh Dickinson University,fdu.edu,1000 River Rd, Teaneck,NJ,7666, United States,40.8977928,-74.030864,ChIJu1-A4Av6wokRNQAweYTMrY8
Fairmont State College,fairmont.wvnet.edu,1201 Locust Ave, Fairmont,WV,26554, United States,39.4853311,-80.1628261,ChIJgQeAG59-SogRiWPmAFS8QmI
Fayetteville State University,fsufay.edu,1200 Murchison Rd, Fayetteville,NC,28301, United States,35.0742206,-78.8924896,ChIJH0Xb4dxsq4kRI6ijQc09VIs
Ferris State University,ferris.edu,1201 S State St, Big Rapids,MI,49307, United States,43.6834099,-85.4841782,ChIJ0Zwj5CLTGIgRkeQ1OYnoEaU
Fielding Institute,fielding.edu,2020 De La Vina St, Santa Barbara,CA,93105, United States,34.4292763,-119.717472,ChIJQzN8KJIU6YAR71fA3_BBj9w
Fisk University,fisk.edu,1000 17th Ave N, Nashville,TN,37208, United States,36.1672456,-86.8036353,ChIJ89k6It1mZIgRsq6pylxEXac
Fitchburg State College,fsc.edu,160 Pearl St, Fitchburg,MA,1420, United States,42.5900165,-71.7889139,ChIJcctHGLXn44kRGN4NURMIPeY
Florida Agricultural and Mechanical University,famu.edu,1601 S Martin Luther King Jr Blvd, Tallahassee,FL,32301, United States,30.4224699,-84.2884251,ChIJAQAAAIxf7IgRFUkeg5r0hfk
Florida Atlantic University,fau.edu,777 Glades Rd, Boca Raton,FL,33431, United States,26.3739379,-80.1015277,ChIJb7B4UQMe2YgR0idQkk3zggg
Florida Gulf Coast University,fgcu.edu,10501 FGCU Blvd S, Fort Myers,FL,33965, United States,26.4643209,-81.7733903,ChIJa19yjlYR24gRkNkPNcH-wJ8
Florida Institute of Technology,fit.edu,150 W University Blvd, Melbourne,FL,32901, United States,28.0646888,-80.623022,ChIJT8H66QQS3ogRG-eCXbWLfLI
Florida International University,fiu.edu,11200 SW 8th St, Miami,FL,33199, United States,25.756576,-80.373949,ChIJD95PQS6_2YgR8JJr-8eaRq4
Florida State University,fsu.edu,600 W College Ave, Tallahassee,FL,32306, United States,30.4418778,-84.2984889,ChIJ0x3yeHD17IgRyIZdf-4PG5w
Fontbonne College,fontbonne.edu,6800 Wydown Blvd, St. Louis,MO,63105, United States,38.6414396,-90.3158624,ChIJ4a6r07nK2IcRIUrwZfdC-Qc
Fordham University,fordham.edu,441 E Fordham Rd,Bronx,NY,10458, United States,40.8620404,-73.8856987,ChIJkcCAUX7zwokR-D7XXkTPxTk
Fort Hays State University,fhsu.edu,600 Park St #1, Hays,KS,67601, United States,38.8714459,-99.3444883,ChIJ_R8bCJ15oYcR-uW3to5C7XU
Franciscan University,franciscan.edu,1235 University Blvd, Steubenville,OH,43952, United States,40.3772094,-80.6244016,ChIJTfd8EC0wNIgRJS39KSxC09k
Franklin and Marshall College,fandm.edu,415 Harrisburg Ave, Lancaster,PA,17603, United States,40.0475258,-76.3179016,ChIJi3Mw5GEkxokRS_6TQjt113s
Franklin University,franklin.edu,201 S Grant Ave, Columbus,OH,43215, United States,39.9583587,-82.9903407,ChIJoZPQacuIOIgRASBiQHEG4-o
Fresno Pacific University,fresno.edu,1717 S Chestnut Ave, Fresno,CA,93702, United States,36.7273148,-119.73418,ChIJWXAZgQNflIARV40PbTc746Y
Friends University,friends.edu,2100 W University Ave, Wichita,KS,67213, United States,37.6780284,-97.3660868,ChIJV-zLPUThuocR6WXVmIujFdg
Frostburg State University,fsu.umd.edu,101 Braddock Rd, Frostburg,MD,21532, United States,39.648443,-78.932326,ChIJrQ2T0i2XyokRJfVYT_a3dAw
Fuller Theological Seminary,fuller.edu,135 N Oakland Ave, Pasadena,CA,91101, United States,34.1477704,-118.1404172,ChIJ3Z1JI2nDwoARkRJAHbxjU1o
Furman University,furman.edu,3300 Poinsett Hwy, Greenville,SC,29613, United States,34.9237,-82.4382693,ChIJBw5xX6UzWIgRhg86-lkSG1s
Gallaudet University,gallaudet.edu,800 Florida Ave NE, Washington,DC,20002, United States,38.908422,-76.9923875,ChIJw7on2RO4t4kRHTiHL_w_A38
Gannon University,gannon.edu,109 University Square, Erie,PA,16501, United States,42.1282445,-80.0865882,ChIJSz0tyeR_LYgRv8REEd7E7Xg
Geneva College,geneva.edu,3200 College Ave, Beaver Falls,PA,15010, United States,40.7713156,-80.3218472,ChIJZz5uNR5xNIgRP7N5hfXZWSI
George Fox College,gfc.edu,414 N Meridian St, Newberg,OR,97132, United States,45.3037192,-122.9655735,ChIJFdIbDn9qlVQRgyFF5Akv0l8
George Mason University,gmu.edu,4400 University Dr, Fairfax,VA,22030, United States,38.8315541,-77.3120885,ChIJvX5Ce2BOtokRRHVV5lOmZtc
George Washington University,gwu.edu,2121 I St NW, Washington,DC,20052, United States,38.8997145,-77.0485992,ChIJpXo8DrG3t4kRCKgn3Bv0e9o
Georgetown University,georgetown.edu,3700 O St NW, Washington,DC,20057, United States,38.9076089,-77.0722585,ChIJa4-fzkC2t4kRgihmVAVtnRw
Georgia College,gac.peachnet.edu,231 W Hancock St, Milledgeville,GA,31061, United States,33.0798884,-83.2318054,ChIJraNH6ebH9ogRRzqlHqKWHTw
Georgia Institute of Technology,gatech.edu,North Ave NW, Atlanta,GA,30332, United States,33.7756178,-84.396285,ChIJ40_D64oE9YgRD8XYOj7QKrU
Georgia Southern University,gasou.edu,1332 Southern Dr, Statesboro,GA,30458, United States,32.4205489,-81.7865347,ChIJH5neYdFA-ogRtExwVK1ETn8
Georgia Southwestern College,gsw.peachnet.edu,800 Georgia Southwestern State University Drive, Americus,GA,31709, United States,32.0562795,-84.2176343,ChIJJ5uTr3NX8ogRo2C9gJOt_rI
Georgia State University,gsu.edu,33 Gilmer St SE,Atlanta,GA,30302, United States,33.753068,-84.3852819,ChIJueHvE4YD9YgRl25c4JufwUo
Georgian Court College,georgian.edu,900 Lakewood Ave, Lakewood,NJ,8701, United States,40.0988128,-74.226609,ChIJb_CBjaR4wYkRc5JZ5FrsdXQ
Gettysburg College,gettysburg.edu,300 N Washington St, Gettysburg,PA,17325, United States,39.8362073,-77.2375078,ChIJC0FDYoisyYkRAhAi68Dzre8
GMI Engineering and Management Institute,gmi.edu,1700 University Ave, Flint,MI,48504, United States,43.0115468,-83.7138531,ChIJLx7Nx2SCI4gRzW8R94I3pEw
Golden Gate University,ggu.edu,536 Mission St, San Francisco,CA,94105, United States,37.789292,-122.398982,ChIJO7R-32KAhYARA4Fpef70tjk
Goldey-Beacom College,gbc.edu,4701 Limestone Rd, Wilmington,DE,19808, United States,39.7415725,-75.6895335,ChIJvTJsYR8Ax4kRrsRFT1NQ5lI
Gonzaga University,gonzaga.edu,502 E Boone Ave, Spokane,WA,99202, United States,47.667189,-117.4023849,ChIJ--96u-sYnlQR5we5eRYNFts
Goshen College,goshen.edu,1700 S Main St, Goshen,IN,46526, United States,41.564367,-85.828317,ChIJ0fC3UPTsFogRswXigO3sjZA
Goucher College,goucher.edu,1021 Dulaney Valley Rd, Baltimore,MD,21204, United States,39.408765,-76.596545,ChIJy88csukEyIkRC41tMZN3aIY
Governors State University,bgu.edu,1 University Pkwy, University Park,IL,60484, United States,41.4486624,-87.7169137,ChIJzev7BWcQDogRoFnjzw3OJQk
Grace College,grace.edu,200 Seminary Dr, Winona Lake,IN,46590, United States,41.2259141,-85.8158719,ChIJoQ-m_6GdFogRPu_aJZRUL_E
Graceland College,graceland.edu,1 University Pl, Lamoni,IA,50140, United States,40.616346,-93.925638,ChIJQ1YSZ5jN64cRknr5D7g_H4w
Grand Valley State University,gvsu.edu,1 Campus Dr, Allendale,MI,49401, United States,42.9639355,-85.8889465,ChIJjzmdDB-jGYgR-jLs4LNnA-o
Grinnell College,grin.edu,1115 8th Ave, Grinnell,IA,50112, United States,41.7490571,-92.7201302,ChIJ7_nHPEBy74cRV7lMEJVsKco
Guilford College,guilford.edu,5800 W Friendly Ave, Greensboro,NC,27410, United States,36.0917988,-79.8887399,ChIJ0QnN5p0cU4gRWtfgLXwOo14
Gustavus Adolphus College,gac.edu,800 College Ave, St Peter,MN,56082, United States,44.3221619,-93.9687771,ChIJA3A0MUkz9IcRhpFsUgkRYtI
Gutenberg College,gutenberg.edu,1883 University St, Eugene,OR,97403, United States,44.039154,-123.074284,ChIJY-SQATcewVQRMWbVeaF8hDQ
Hamilton College,hamilton.edu,198 College Hill Rd, Clinton,NY,13323, United States,43.0525874,-75.4050437,ChIJ515-9xlp2YkRlZiUeiygm3w
Hamline University,hamline.edu,1536 Hewitt Ave, St Paul,MN,55104, United States,44.965946,-93.164807,ChIJ2etUBkYrs1IRukE2CCG5w7I
Hampden-Sydney College,hsc.edu,80 College Rd, Hampden Sydney,VA,23943, United States,37.2403758,-78.4610298,ChIJQ8tHQl9FsokRRvnLG1v9cmU
Hampshire College,hampshire.edu,893 West St, Amherst,MA,1002, United States,42.325559,-72.5322956,ChIJk-ghYC3Q5okRj2la7sSfiNg
Hampton University,hamptonu.edu,100 E Queen St, Hampton,VA,23668, United States,37.0228392,-76.3343603,ChIJC88Q9LeEuokRRfowf8_u-xQ
Hanover College,hanover.edu,484 Ball Dr, Hanover,IN,47243, United States,38.7192502,-85.4623681,ChIJ79WkDsMvaogRF7uPJi3bZpI
Harding University,harding.edu,915 E Market Ave, Searcy,AR,72149, United States,35.245152,-91.7235465,ChIJs9qADaip04cREIQZoDzxZ-8
Hartwick College,hartwick.edu,1 Hartwick Dr, Oneonta,NY,13820, United States,42.4573534,-75.0728868,ChIJRVZVFXuM24kRAE8dsQyDZ8g
Harvard University,harvard.edu,1 Oxford St,Cambridge,MA,2138, United States,42.3770029,-71.1166601,ChIJmQF_fUJ344kR8Cck7lzGN1k
Harvey Mudd College,hmc.edu,301 Platt Blvd, Claremont,CA,91711, United States,34.1060817,-117.7104699,ChIJT9gBkrkxw4ARZRM5Ck25-iQ
Haskell Indian Nations University,haskell.edu,155 E Indian Ave, Lawrence,KS,66046, United States,38.9377658,-95.2333404,ChIJufGG9qNov4cRhO4xFnqf1RY
Hastings College,hastings.edu,710 Turner Ave, Hastings,NE,68901, United States,40.5904193,-98.3732874,ChIJUbyA55WjmYcR4Vwe3In_kV4
Haverford College in Pennsylvania,haverford.edu,370 Lancaster Ave, Haverford,PA,19041, United States,40.0066524,-75.305318,ChIJJS6VzuvGxokRWTnyFDVOAEQ
Hawaii Pacific University,hpu.edu,1164 Bishop St, Honolulu,HI,96813, United States,21.3102505,-157.8607075,ChIJj-5rrnVuAHwRPS6SHf-kPW4
Heidelberg College,heidelberg.edu,310 E Market St, Tiffin,OH,44883, United States,41.1148471,-83.1674854,ChIJoaHPbSvfO4gR3aDrSef4NCY
Hendrix College,hendrix.edu,1600 Washington Ave, Conway,AR,72032, United States,35.1000469,-92.4420118,ChIJO-EaUyCC0ocRzKTqQQUhs6c
Hesston College,hesston.edu,301 S Main St, Hesston,KS,67062, United States,38.1345466,-97.4339327,ChIJ_6u2XXdqu4cRpOmObTAO0Yc
High Point University,highpoint.edu,1 University Parkway, High Point,NC,27262, United States,35.9723841,-79.9953079,ChIJUx4anycPU4gRqYdkaUBQvR4
Hillsdale College,hillsdale.edu,33 E College St, Hillsdale,MI,49242, United States,41.9326414,-84.6336504,ChIJpzPEMOtyPYgR5W6fg6yR0Yk
Hiram College,hiram.edu,11715 Garfield Rd, Hiram,OH,44234, United States,41.3107322,-81.1439525,ChIJm4ljMD1rMYgRg-GEPqeJC6M
Hobart and William Smith Colleges,hws.edu,300 Pulteney St, Geneva,NY,14456, United States,42.8591531,-76.9844868,ChIJDarTARzF0IkR8CpymncFIU0
Hofstra University,hofstra.edu,1000 Fulton Ave, Hempstead,NY,11549, United States,40.716792,-73.5994041,ChIJE1pszKN9wokR88BCiDJLtPs
Hollins College,hollins.edu,7916 Williamson Rd, Roanoke,VA,24019, United States,37.3561118,-79.9423865,ChIJQ27XaMcPTYgRrM9xM930Lt8
Holy Cross College,holycross.edu,54515 IN-933, Notre Dame,IN,46556, United States,41.6992582,-86.2532216,ChIJ275JTtHSFogRg_purimcnLU
Hood College,hood.edu,401 Rosemont Ave, Frederick,MD,21701, United States,39.4213829,-77.4202024,ChIJG-0GXv_ayYkRo7DGSxrQTUk
Hope College,hope.edu,141 E 12th St, Holland,MI,49423, United States,42.7871797,-86.1023574,ChIJU9jdXaXyGYgRiRgjUXF0NXQ
Howard University,howard.edu,2400 Sixth St NW, Washington,DC,20059, United States,38.9226843,-77.0194377,ChIJ-c60Vvy3t4kRwnfbyB_H3DI
Humboldt State University,humboldt.edu,1 Harpst St, Arcata,CA,95521, United States,40.8752748,-124.077821,ChIJZ2prcm1X0VQRWrkBafpJvzU
Hunter College,hunter.cuny.edu,695 Park Ave, New York,NY,10065, United States,40.7685406,-73.9646251,ChIJiQifietYwokRH-532KcK6bU
Huntingdon College,huntingdon.edu,1500 E Fairview Ave, Montgomery,AL,36106, United States,32.3504918,-86.2863163,ChIJaaZEerKBjogRDEu16o8VixQ
Huntington College,huntcol.edu,1500 E Fairview Ave, Montgomery,AL,36106, United States,32.3504918,-86.2863163,ChIJaaZEerKBjogRDEu16o8VixQ
ICI University,ici.edu,1211 S Glenstone Ave, Springfield,MO,65802, United States,37.1919,-93.263078,ChIJFTF8z81iz4cRuqNUg6fHm44
Idaho State University,isu.edu,921 S 8th Ave, Pocatello,ID,83209, United States,42.8627231,-112.4297156,ChIJv6cEc8j3rlQRjsBMbUPbAMo
Illinois Benedictine College,ibc.edu,5700 College Rd, Lisle,IL,60532, United States,41.7783779,-88.0967798,ChIJG3Tr6y5XDogRByHsaa54X1k
Illinois Institute of Technology,iit.edu,3300 S Federal St, Chicago,IL,60616, United States,41.8348731,-87.6270059,ChIJD6jp03IsDogRGm_7Gmbky5E
Illinois State University,ilstu.edu,100 N University St, Normal,IL,61761, United States,40.5122833,-88.9946702,ChIJc7x4lHFxC4gRNCy2X17B5RA
Incarnate Word College,iwctx.edu,4301 Broadway St, San Antonio,TX,78209, United States,29.4675939,-98.4676217,ChIJmSbIUZz1XIYRUIzuxGKYPN0
Indiana Institute of Technology,indtech.edu,1600 E Washington Blvd, Fort Wayne,IN,46803, United States,41.078955,-85.117691,ChIJS0ChKLjkFYgR0t6rco0F5Oc
Indiana State University,indstate.edu,200 N 7th St, Terre Haute,IN,47809, United States,39.4705314,-87.4103736,ChIJQ6w2DTplbYgReJ_3x_lCBPM
Indiana University System,indiana.edu,107 S Indiana Ave, Bloomington,IN,47405, United States,39.1761275,-86.5130583,ChIJM62JZ8JmbIgRNtQVs4ugmTQ
Indiana University/Purdue University at Columbus,columbus.iupui.edu,4601 Central Ave, Columbus,IN,47203, United States,39.25333,-85.9022344,ChIJeeaMG50Ka4gRlb0lwzUmkvo
Indiana University/Purdue University at Fort Wayne,ipfw.indiana.edu,2101 E Coliseum Blvd, Fort Wayne,IN,46805, United States,41.1173345,-85.1077816,ChIJiTmal8r8FYgRRz-a0lzruGQ
Indiana University/Purdue University at Indianapolis,iupui.edu,420 University Blvd, Indianapolis,IN,46202, United States,39.7738832,-86.1763393,ChIJiwAfRjVXa4gRHjfMlbaZJro
Indiana University at Bloomington,indiana.edu,107 S Indiana Ave, Bloomington,IN,47405, United States,39.1761275,-86.5130583,ChIJM62JZ8JmbIgRNtQVs4ugmTQ
Indiana University at South Bend,iusb.indiana.edu,1700 Mishawaka Ave, South Bend,IN,46615, United States,41.6621383,-86.2197175,ChIJT1rtZQHNFogRilrvSe61I_Q
Indiana University of Pennsylvania,iup.edu,1011 South Dr, Indiana,PA,15705, United States,40.6142181,-79.1610625,ChIJUZyi8NNay4kRpJbUVvTvUp0
Indiana University Southeast at New Albany,ius.indiana.edu,4201 Grant Line Rd, New Albany,IN,47150, United States,38.3448964,-85.8196904,ChIJj0mcbo1uaYgRSg2E3shikkQ
Indiana Wesleyan University Marion,indwes.edu,4201 S Washington St, Marion,IN,46953, United States,40.5168964,-85.6626535,ChIJa5FVZ9b-FIgRpHOciL4M6Gs
Iona College,iona.edu,715 North Ave, New Rochelle,NY,10801, United States,40.9273194,-73.7861826,ChIJvQxst4CNwokRBWezHdgNrxM
Iowa State University,iastate.edu,100 Enrollment Services Center,Ames,IA,50011, United States,42.0266187,-93.6464654,ChIJGVshXgp67ocR6Els7jrt2Nc
Ithaca College,ithaca.edu,953 Danby Rd, Ithaca,NY,14850, United States,42.421658,-76.498564,ChIJ9cyXya6B0IkRIkSa7WPNVHo
Jackson State University,jsums.edu,1400 John R. Lynch St, Jackson,MS,39217, United States,32.2968847,-90.2063965,ChIJm_XHtJczKIYRr3zkCgBNSPs
Jacksonville University,ju.edu,2800 University Blvd N, Jacksonville,FL,32211, United States,30.3525305,-81.6072444,ChIJZzEzWVSx5YgRw03rynym8EI
Jacksonville State University,jsu.edu,700 Pelham Rd N, Jacksonville,AL,36265, United States,33.8230593,-85.7681082,ChIJnZ2mMh1OiogRnMbtz5AME4Q
James Madison University,jmu.edu,800 S Main St, Harrisonburg,VA,22807, United States,38.435092,-78.8697548,ChIJicvPEMKStIkR6B2M9ePJlG8
Jamestown College,jc.edu,6000 College Ln, Jamestown,ND,58405, United States,46.9160461,-98.7019459,ChIJoT1qi3tlB0ER_ZLvX8919Gc
The Jewish Theological Seminary,jtsa.edu,3080 Broadway, New York,NY,10027, United States,40.8120268,-73.9605882,ChIJjStpEkD2wokRyO530lzHo44
John Brown University,jbu.edu,2000 W University St, Siloam Springs,AR,72761, United States,36.190767,-94.5594091,ChIJs5nfu7OiyYcRUQPLEUgTF5k
John F. Kennedy University,jfku.edu,100 Ellinwood Way, Pleasant Hill,CA,94523, United States,37.9567523,-122.0546361,ChIJ01tcnTNhhYAR98n-cSK3pYY
Johns Hopkins University,jhu.edu,3400 N Charles St,Baltimore,MD,21218, United States,39.3299013,-76.6205177,ChIJjfgChd8EyIkRZkygT0lYPTA
Johnson Bible College,jbc.edu,7900 Johnson Dr, Knoxville,TN,37998, United States,35.9362408,-83.7504367,ChIJDwRSR_APXIgRI78JYVuqQKk
Johnson C. Smith University,jcsu.edu,100 Beatties Ford Rd, Charlotte,NC,28216, United States,35.2427192,-80.8562124,ChIJIRduPrWhVogRkEaRDLyg0CM
Jones College,jones.edu,5353 Arlington Expy, Jacksonville,FL,32211, United States,30.3279923,-81.6102291,ChIJV9WxCKK25YgRE6uWR0AfX9U
Judson College,judson.edu,302 Bibb St, Marion,AL,36756, United States,32.6298869,-87.3149694,ChIJcS-ZWG5pj4gRl5rNPOtltdk
Juniata College,juniata.edu,1700 Moore St, Huntingdon,PA,16652, United States,40.4999884,-78.0160042,ChIJz3bNUar8y4kR7-hvQ0r8dqQ
Kalamazoo College,kzoo.edu,1200 Academy St, Kalamazoo,MI,49006, United States,42.290035,-85.598145,ChIJ5yGKLV6dF4gRGUDjG8roZhQ
Kansas State University,ksu.edu,137 Hale Library,Manhattan,KS,66506, United States,39.1974437,-96.5847249,ChIJSXQyV43NvYcRdRt537z5Zg0
Kansas Wesleyan University,kwu.edu,100 E Claflin Ave, Salina,KS,67401, United States,38.8136327,-97.6086291,ChIJ3__-LwPGvIcRkQvRoEJuzHU
Kean College,kean.edu,1000 Morris Ave, Union,NJ,7083, United States,40.678071,-74.2342865,ChIJkTMLalutw4kRlI7iSzKGxHY
Keene State College,keene.edu,229 Main Street, Keene,NH,3431, United States,42.9249987,-72.2822698,ChIJr1MdfINz4YkRk43BDi9heK4
Kent State University,kent.edu,800 E Summit St, Kent,OH,44240, United States,41.1490629,-81.3414649,ChIJeWbarto6MYgRM8S8HJDz2d0
Kenyon College,kenyon.edu,103 College Rd, Gambier,OH,43022, United States,40.3718965,-82.3983079,ChIJa8WBbK8yOIgR727Dq4IcsTw
Knox College,knox.edu,2 E South St, Galesburg,IL,61401, United States,40.9418892,-90.3718673,ChIJ861CyAu-4YcRYs4qcDWMIBc
Kutztown University of Pennsylvania,kutztown.edu,15200 Kutztown Rd, Kutztown,PA,19530, United States,40.5100878,-75.7834225,ChIJcTZo4LfTxYkRudy8-WN9F-g
La Sierra University,lasierra.edu,4500 Riverwalk Pkwy, Riverside,CA,92505, United States,33.909867,-117.494974,ChIJe01iPAa33IARTgTxe9RPkHQ
LaGrange College,lgc.peachnet.edu,601 Broad St, LaGrange,GA,30240, United States,33.0384447,-85.0433441,ChIJd4YAJPNWi4gRtCZXyT3jEf8
Lafayette College,lafayette.edu,730 High St, Easton,PA,18042, United States,40.6986202,-75.2087298,ChIJAZll2E5sxIkRmWtHcAi0le4
Lake Forest College,lfc.edu,555 Sheridan Rd, Lake Forest,IL,60045, United States,42.249058,-87.828913,ChIJAzYGauTqD4gR2aBaXyPDGkA
Lake Superior State University,lssu.edu,650 W Easterday Ave, Sault Ste. Marie,MI,49783, United States,46.491793,-84.3638774,ChIJL4qWeHY5Nk0RU8FM-RSVZSU
Lamar University,lamar.edu,4400 S M L King Jr Pkwy, Beaumont,TX,77705, United States,30.040144,-94.075231,ChIJy2sEtXjKPoYRH9n_xPzmC6E
Langston University,lunet.edu,701 Sammy Davis Jr Dr, Langston,OK,73050, United States,35.9459622,-97.262907,ChIJq6qqqgWasYcRfgwV73rArVo
LaSalle University,lasalle.edu,1900 W Olney Ave, Philadelphia,PA,19141, United States,40.0386083,-75.1566429,ChIJi-rtryq4xokRsvHYupH2zMM
Lawrence University,lawrence.edu,711 E Boldt Way, Appleton,WI,54911, United States,44.2615759,-88.3980999,ChIJTdek6siwA4gRbtoIcRUmFb4
Lawrence Technological University,ltu.edu,21000 W 10 Mile Rd, Southfield,MI,48075, United States,42.4755011,-83.2497967,ChIJMX5McinIJIgR1yFZQAfXcyU
Lebanon Valley College,lvc.edu,101 College Ave, Annville,PA,17003, United States,40.331103,-76.514699,ChIJR4NpmISoyIkRTG0ZGlTmXB4
Lehigh Univervsity,lehigh.edu,27 Memorial Dr W, Bethlehem,PA,18015, United States,40.6069087,-75.3782832,ChIJ5WpcfWc-xIkRILNvZO3psF0
Le Moyne College,lemoyne.edu,1419 Salt Springs Rd, Syracuse,NY,13214, United States,43.0497018,-76.0855042,ChIJ80d1SSvz2YkRfGT5vBNGmbQ
Lenoir-Rhyne College,lrc.edu,625 7th Ave NE, Hickory,NC,28601, United States,35.7414291,-81.3262158,ChIJl5SntjEwUYgRCp9X5S7NHCs
LeTourneau University,letu.edu,2100 S Mobberly Ave, Longview,TX,75602, United States,32.465893,-94.7264594,ChIJdThN2Ak4NoYRmi7uHnWNyvU
Lewis-Clark State College,lcsc.edu,500 8th Ave, Lewiston,ID,83501, United States,46.4114256,-117.0263456,ChIJ9UKBHbHKoVQRKuVoUhugA0o
Lewis University,lewisu.edu,1 University Pkwy, Romeoville,IL,60446, United States,41.6040218,-88.0799314,ChIJjUYS4uddDogRfMyrUwpDmyA
Liberty University,liberty.edu,1971 University Blvd, Lynchburg,VA,24515, United States,37.3529323,-79.1769282,ChIJEdnwoIrasokRDs8syoKHVTA
Linfield College,linfield.edu,900 SE Baker St, McMinnville,OR,97128, United States,45.200606,-123.199224,ChIJyY41VihJlVQRcO-N6XqU2Es
Lock Haven University of Pennsylvania,lhup.edu,401 N Fairview St, Lock Haven,PA,17745, United States,41.1423205,-77.4621475,ChIJaYhs9FrxzokRnLuK-AQWubI
Loma Linda University,llu.edu,11139 Anderson St, Loma Linda,CA,92350, United States,34.0519078,-117.2624677,ChIJ72sqMImr3IAR8iMRSRE6Ekw
Long Island University,liunet.edu,720 Northern Blvd, Brookville,NY,11548, United States,40.8172349,-73.5900738,ChIJsYd_InCGwokRN4oS6IeBbsY
Longwood College,lwc.edu,201 High St, Farmville,VA,23909, United States,37.2971798,-78.3961973,ChIJPen8IsZOsokRRg6Qw38oXr8
Loras College,loras.edu,1450 Alta Vista St, Dubuque,IA,52001, United States,42.502738,-90.681399,ChIJy3vT0H4s44cRcdw72aD1ZEA
Louisiana College,lacollege.edu,1140 College Dr, Pineville,LA,71360, United States,31.3252793,-92.4266601,ChIJ4SB74ntLJYYRbTe2Zq1gZuc
Louisiana State University,lsu.edu,304 Thomas Boyd Hall,Baton Rouge,LA,70803, United States,30.4132579,-91.1800023,ChIJoxwOeCOnJoYRU1QUYy4fss0
Louisiana State University at Alexandria,lsua.edu,8100 US-71, Alexandria,LA,71302, United States,31.178112,-92.4143367,ChIJsxlZYAg1JYYRKvyyyqtg1gM
Louisiana State University at Shreveport,lsus.edu,1 University Pl, Shreveport,LA,71115, United States,32.4285844,-93.7042912,ChIJccwvXfgsMYYRWKML0Md2mzk
Louisiana Tech University,latech.edu,305 Wisteria St, Ruston,LA,71272, United States,32.5263753,-92.6481104,ChIJfYq7DHPFMYYRxPINyUGUuMQ
Loyola Marymount University,lmu.edu,1 Loyola Marymount University Dr, Los Angeles,CA,90045, United States,33.9698183,-118.4184969,ChIJr6RajZewwoARb8XnfwwGyho
Loyola University Chicago,luc.edu,1032 W Sheridan Rd, Chicago,IL,60660, United States,41.998997,-87.6581921,ChIJ_8UzkArRD4gRTH5hbofNE-Y
Luther College,luther.edu,700 College Dr, Decorah,IA,52101, United States,43.311063,-91.8062533,ChIJ5_HNGmOt-4cRPAX6CK-M1ok
Luther Seminary,luthersem.edu,2481 Como Ave, St Paul,MN,55108, United States,44.9858214,-93.1967707,ChIJ5xMiRYwss1IRWAJsuY6MxeM
Lycoming College,lycoming.edu,700 College Pl, Williamsport,PA,17701, United States,41.246018,-77.000181,ChIJV7SF9Bmmz4kRyYIkUoxwouQ
Lynchburg College,lynchburg.edu,1501 Lakeside Dr, Lynchburg,VA,24501, United States,37.4006,-79.183153,ChIJszIcCPbZsokRrey-p5zsJD4
Lyndon State College,lsc.vsc.edu,1001 College Rd, Lyndonville,VT,5851, United States,44.5355567,-72.025198,ChIJC759FsQ2tEwRSSYWsYAyIs4
Lyon College,lyon.edu,2300 Highland Rd, Batesville,AR,72501, United States,35.7782924,-91.6262059,ChIJt054zabb04cRV0StGwE0KAk
Macalester College,macalstr.edu,1600 Grand Ave, St Paul,MN,55105, United States,44.9397631,-93.1687294,ChIJgSJGCRgq9ocRhcfyJmgzUt0
Maharishi University of Management,mum.edu,1000 N 4th St, Fairfield,IA,52557, United States,41.0178238,-91.9672906,ChIJ_aEhMHNm5ocRzk9eD5yfEL0
Maine Maritime Academy,mainemaritime.edu,1 Pleasant St, Castine,ME,4420, United States,44.3885883,-68.803489,ChIJJY7ojgNjrkwR2tC_H2MK2XQ
Malone College,malone.edu,2600 Cleveland Avenue Northwest, Canton,OH,44709, United States,40.8269448,-81.3783011,ChIJM4iLjVnQNogRcBLl7qvWsqo
Manhattan College,mancol.edu,4513 Manhattan College Pkwy, Bronx,NY,10471, United States,40.8899623,-73.9010623,ChIJlfhnNaXzwokRQs-EpgsQ970
Mankato State University,mankato.msus.edu,601 Maywood Ave,Mankato,MN,56001, United States,44.1463506,-93.9986131,ChIJ4_-wYIM59IcRQQqSw4vz4Mg
Mansfield University of Pennsylvania,mnsfld.edu,31 S Academy St, Mansfield,PA,16933, United States,41.8047541,-77.070428,ChIJO4qrKDrWz4kRCbkLCvg8x3U
Marietta College,marietta.edu,215 5th St, Marietta,OH,45750, United States,39.4145456,-81.4491067,ChIJ98FKv_TLSYgR_Psrk4j8QHU
Marist College,marist.edu,3399 North Rd, Poughkeepsie,NY,12601, United States,41.7224565,-73.9341204,ChIJkQpY_P093YkRbP5w_0eNsW0
Marlboro College,marlboro.edu,2582 South Road, Marlboro,VT,5344, United States,42.8390545,-72.7347545,ChIJU52VX5Ph4IkRxBPHs2ZfyHE
Marquette University,mu.edu,1250 W Wisconsin Ave, Milwaukee,WI,53233, United States,43.0382216,-87.9297546,ChIJWwzA14EZBYgRCxLMKlhRvVU
Marshall University,marshall.edu,1 John Marshall Dr, Huntington,WV,25755, United States,38.4235332,-82.4263138,ChIJp7yzRzEIRogR9i7Uhy_x0O4
Mary Baldwin College,mbc.edu,101 E Frederick St, Staunton,VA,24401, United States,38.15387,-79.069256,ChIJhwVAwoigtIkRQWUn4uZxosw
Marymount University,marymount.edu,2807 N Glebe Rd, Arlington,VA,22207, United States,38.905351,-77.1277618,ChIJH_DSs821t4kRkgVanNs9mTw
Mary Washington College,mwc.edu,1301 College Ave, Fredericksburg,VA,22401, United States,38.3021703,-77.4742587,ChIJVaKH6fbBtokRwcOX0Gbb8h4
Massachusetts Institute of Technology,mit.edu,77 Massachusetts Ave, Cambridge,MA,2139, United States,42.360091,-71.09416,ChIJh2oa9apw44kRPCAIs6WO4NA
McMurry University,mcm.acu.edu,1400 Sayles Blvd, Abilene,TX,79605, United States,32.429984,-99.7504307,ChIJjyjUfd-NVoYRIbPLYY-Atgo
McNeese State University,mcneese.edu,4205 Ryan St, Lake Charles,LA,70605, United States,30.1783657,-93.215629,ChIJs8LZzPCGO4YReQnHxgeUfCE
Medical College of Georgia,mcg.edu,973 Broad St, Augusta,GA,30901, United States,33.477119,-81.96912,ChIJBTIb2m7M-YgRrO4SjL_sXIg
Medical College of Wisconsin,mcw.edu,8701 W Watertown Plank Rd, Milwaukee,WI,53226, United States,43.043967,-88.020103,ChIJx91MU-AEBYgRVa7UC1_mZ_w
Mercer University,mercer.peachnet.edu,1501 Mercer University Dr, Macon,GA,31207, United States,32.8288194,-83.6497765,ChIJS4T9n4n-84gR4PX-gkJv1aE
Mercyhurst College,mercy.edu,501 E 38th St, Erie,PA,16546, United States,42.1050703,-80.0536593,ChIJhRhPezKAMogRMOsxo1QGyWA
Meredith College,meredith.edu,3800 Hillsborough St, Raleigh,NC,27607, United States,35.7981239,-78.6883833,ChIJxdvCcMb1rIkRjGlpJXKcnxc
Messiah College,messiah.edu,1 College Ave, Mechanicsburg,PA,17055, United States,40.157957,-76.988194,ChIJfUgtssDoyIkR07z1SfyvpoU
Metropolitan State College of Denver,mscd.edu, 890 Auraria Pkwy, Denver,CO,80204, United States,39.7438923,-105.0044628,ChIJ151GqzN_bIcRlMkv18szfeY
Metropolitan State University,metro.msus.edu,700 E 7th St, St Paul,MN,55106, United States,44.9569973,-93.0742426,ChIJGz0zvmHV94cR-0XukziU6cY
Michigan State University,msu.edu,220 Trowbridge Rd, East Lansing,MI,48824, United States,42.701848,-84.4821719,ChIJY42I2lnCIogRPzuqBauYmG4
Michigan Technological University,mtu.edu,1400 Townsend Dr, Houghton,MI,49931, United States,47.1149065,-88.5453073,ChIJgXWA0hDIUE0R1RrWV5TK14A
Mid-America Nazarene College,manc.edu,2030 E College Way, Olathe,KS,66062, United States,38.8741518,-94.7825973,ChIJP7fBszu-wIcRsz-5ZHsePm0
Middlebury College,middlebury.edu,14 Old Chapel Rd, Middlebury,VT,5753, United States,44.0082595,-73.1773152,ChIJj7_gV_5ctUwRuyfdhq0Zg-k
Middle Georgia College,mgc.peachnet.edu,100 University Pkwy, Macon,GA,31206, United States,32.8104205,-83.7329474,ChIJna-_nUf684gRN8Ioi0APpXs
Middle Tennessee State University,mtsu.edu,1301 E Main St, Murfreesboro,TN,37132, United States,35.8486105,-86.3648813,ChIJpcKjWZf4Y4gRstWs3B7286s
Midwestern State University,mwsu.edu,3410 Taft Blvd, Wichita Falls,TX,76308, United States,33.8758705,-98.519834,ChIJ4ZgwMTEgU4YRzmw1KqDHZ24
Millersville University of Pennsylvania,millersv.edu,1 S George St, Millersville,PA,17551, United States,39.9976889,-76.3544283,ChIJEwaLMOUlxokRkpIe0PTDP88
Milligan College,milligan-college.tn.us,101 Neth Dr, Milligan College,TN,37682, United States,36.3016849,-82.2951115,ChIJ6SVcupl-WogR8ufg7BZQJiY
Millikin University,millikin.edu,1184 W Main St, Decatur,IL,62522, United States,39.8430961,-88.974817,ChIJ3VpFVFewdIgRx0dv-TSgI7w
Millsaps College,millsaps.edu,1701 N State St, Jackson,MS,39202, United States,32.322401,-90.1782623,ChIJhUVwNOUyKIYRVtUDEQGd190
Milwaukee School of Engineering,msoe.edu,1025 N Broadway, Milwaukee,WI,53202, United States,43.0440495,-87.9084479,ChIJH53i1ggZBYgRUWo-MZDyxck
Minot State University,misu.nodak.edu,500 University Ave W, Minot,ND,58707, United States,48.2486186,-101.3014104,ChIJSawxovMp31IR2-OAP_EAMrI
Minneapolis College of Art and Design,mcad.edu,2501 Stevens Ave, Minneapolis,MN,55404, United States,44.956828,-93.2746532,ChIJDSb7ErQys1IR_G-2p5c9KNM
Mississippi College,mc.edu,200 S Capitol St, Clinton,MS,39058, United States,32.334545,-90.3304648,ChIJP-YH1d1KKIYRS2qFXPDiruc
Mississippi State University,msstate.edu,B. S. Hood Rd, Mississippi State University,MS,39759, United States,33.4551742,-88.7943766,ChIJqwF75D41gYgRK3IANU9C8Xs
Mississippi University for Women,muw.edu,1100 College St, Columbus,MS,39701, United States,33.4947079,-88.4187196,ChIJEdfRNvw1gYgRmI3yu9Xwhbs
Missouri Southern State College,mssc.edu,3950 Newman Rd, Joplin,MO,64801, United States,37.0958999,-94.4606913,ChIJnY8YL2h8yIcRLUuFcGP2M08
Missouri Western State College,mwsc.edu,4525 Downs Dr, St Joseph,MO,64507, United States,39.7598942,-94.7845282,ChIJYWyvU6cZwIcRDxbfHyDRuIM
Molloy College,molloy.edu,1000 Hempstead Ave, Rockville Centre,NY,11570, United States,40.6859799,-73.6263933,ChIJJQVq_Op8wokRz43644m-8os
Monmouth College,monm.edu,700 E Broadway, Monmouth,IL,61462, United States,40.9135265,-90.6386297,ChIJO68GI1UK4YcRO1ZgelRHz4s
Monmouth University,monmouth.edu,400 Cedar Ave, West Long Branch,NJ,7764, United States,40.2804557,-74.0058114,ChIJyV792qElwokRyd-tH-RZ1FY
Montana State University-Billings,msubillings.edu,1500 University Dr, Billings,MT,59101, United States,45.7968435,-108.5220124,ChIJ9bc4dRN7SFMRvFY3B0z2i1Y
Montana State University-Bozeman,montana.edu,211 Montana Hall, Bozeman,MT,59717, United States,45.6667557,-111.04981,ChIJ8xcP1Q5FRVMR0ZG9AE5d_tQ
Montana State University-Northern,nmclites.edu,300 13th St W, Havre,MT,59501, United States,48.5408648,-109.6880953,ChIJnaUnw3KzalMR045Mrf9sgOY
Montana Tech,mtech.edu,1300 W Park St, Butte,MT,59701, United States,46.0123464,-112.557698,ChIJVb7dltEJW1MRvTYVOPX3IBk
Montclair State University,montclair.edu,1 Normal Ave, Montclair,NJ,7043, United States,40.8644792,-74.1985597,ChIJVeyDKDX-wokRrsnPRIcCzu4
Montreat College,montreat.edu,310 Gaither Cir, Montreat,NC,28757, United States,35.6464927,-82.2975138,ChIJvUEe7DX_WYgRRGqQ5h1J09s
Moravian College,moravian.edu,1200 Main St, Bethlehem,PA,18018, United States,40.6308814,-75.3812135,ChIJfZpxvqs_xIkRcyrxlnaTdwk
Moorhead State University,moorhead.msus.edu,1104 7th Ave S, Moorhead,MN,56563, United States,46.865905,-96.762332,ChIJCRCFxi_JyFIRcso0yeEZ3EI
Morehouse College,morehouse.edu,830 Westview Dr SW, Atlanta,GA,30314, United States,33.7459553,-84.4138651,ChIJi_Hxq0ID9YgRqVNQGdZA7Mo
Morgan State University,morgan.edu,1700 E Cold Spring Ln, Baltimore,MD,21251, United States,39.3437959,-76.5843847,ChIJlbjearsFyIkRP3_YKp7iNTA
Mount Holyoke College,mtholyoke.edu,50 College St, South Hadley,MA,1075, United States,42.2532535,-72.5761394,ChIJFylIta3b5okRTE0J9Tm-qMU
Mount Saint Joseph College,msjnet.edu,5701 Delhi Ave, Cincinnati,OH,45233, United States,39.0951636,-84.6378845,ChIJeQfCFpjJQYgRIapwat43BK0
Mount Saint Mary College,msmc.edu,330 Powell Ave, Newburgh,NY,12550, United States,41.5130521,-74.0124836,ChIJZ54NX_Ex3YkRoGVDa_UA1r0
Mount Union College,muc.edu,1972 Clark Ave, Alliance,OH,44601, United States,40.902231,-81.108754,ChIJQZRSHfu0NogR9L1sK0YNMAo
Murray State University,mursuky.edu,102 Curris Center, Murray,KY,42071, United States,36.6163842,-88.3214979,ChIJwUHIHaFSeogRzGYQEfkYj2w
Muskingum College,muskingum.edu,163 Stormont St, New Concord,OH,43762, United States,39.9996605,-81.7378895,ChIJYZOoiXbHN4gRoIt0INUq0fc
National-Louis University,nl.edu,122 S Michigan Ave, Chicago,IL,60603, United States,41.8800946,-87.624695,ChIJJza8zfLFD4gRXf6dBoKtp64
National University,nu.edu,9388 Lightwave Ave, San Diego,CA,92123, United States,32.8294811,-117.1272507,ChIJSePh3LT_24ARGP5SBDPIqLU
Naval Postgraduate School,nps.navy.mil,1 University Circle, Monterey,CA,93943, United States,36.5973387,-121.8731426,ChIJN4spWOUAjoARx4txF4H-cgk
Nazareth College,naz.edu,4245 East Ave, Rochester,NY,14618, United States,43.1030175,-77.520027,ChIJkcwXxEeDF4gRQSdOidRv77w
Newberry College,newberry.edu,2100 College St, Newberry,SC,29108, United States,34.2861075,-81.6219227,ChIJpzLeL5TWV4gRNVNFmiLdu6E
New England Institute of Technology,neit.edu,2500 Post Rd, Warwick,RI,2886, United States,41.7152184,-71.4448991,ChIJA_nYMzpM5IkRxY5KkwFrl5s
New College of California,newcollege.edu,1928 St Marys Rd, Moraga,CA,94575, United States,37.8413472,-122.1101353,ChIJYycE0UyIj4ARPazxyF5Nr_Q
New Hampshire College,nhc.edu,3 Barrell Ct, Concord,NH,3301, United States,43.2137389,-71.4989339,ChIJ33elYjZq4okRwXy9lxrZFTU
New Jersey Institute of Technology,njit.edu,323 Dr Martin Luther King Jr Blvd, Newark,NJ,7102, United States,40.7423345,-74.1793409,ChIJ-ZbDmH1TwokRQ1_5LnoofLk
New Mexico Highlands University,nmhu.edu,1005 Diamond St, Las Vegas,NM,87701, United States,35.5960454,-105.2210536,ChIJI1laKYd3GYcRyS_fK1Z4odI
New Mexico Institute of Mining & Technology,nmt.edu,801 Leroy Pl, Socorro,NM,87801, United States,34.065993,-106.905611,ChIJE-XWnoTKIYcRjsvzOxmGB2A
New Mexico State University,nmsu.edu,1780 E University Ave, Las Cruces,NM,88003, United States,32.2787745,-106.7479059,ChIJUSrV6b0X3oYRLaANLbDiIek
New York Institute of Technology,nyit.edu,1855 Broadway, New York,NY,10023, United States,40.7696926,-73.9825863,ChIJxexcBvZYwokRYj2PUGNGDV8
New York University,nyu.edu,40 Washington Square S,New York,NY,10003, United States,40.7295134,-73.9964609,ChIJwZVT9ZpZwokRBfO1cTF0MNo
Niagara University,niagara.edu,5795 Lewiston Rd, Niagara University,NY,14109, United States,43.1365152,-79.0353197,ChIJWZT1um1d04kRw6BztUEl8BM
Nicholls State University,nich.edu,906 E 1st St, Thibodaux,LA,70301, United States,29.7907423,-90.8028602,ChIJaw5fHYk9IYYRpRu9ov_SbyM
Norfolk State University,nsu.edu,700 Park Ave, Norfolk,VA,23504, United States,36.8480161,-76.262085,ChIJU7KMgfCXuokR3AR6D8eEbVg
North Adams State College,nasc.mass.edu,375 Church St, North Adams,MA,1247, United States,42.691554,-73.1033372,ChIJH41p8gW44IkRiPMt4pAEOc8
North Carolina Central University,NCCU.edu,1801 Fayetteville St, Durham,NC,27707, United States,35.974737,-78.8981013,ChIJJ1rThkXkrIkRZbyFFiKcRlM
North Carolina A&T State University,ncat.edu,1601 E Market St,Greensboro,NC,27401, United States,35.7595731,-79.0192997,ChIJgRo4_MQfVIgRGa4i6fUwP60
North Carolina State University,ncsu.edu,2730 Wolf Village Way,Raleigh,NC,27695, United States,35.7846633,-78.6820946,ChIJOXnA46L1rIkRUXe2ZJ3s8jA
North Carolina Wesleyan College,ncwc.edu,3400 N Wesleyan Blvd, Rocky Mount,NC,27804, United States,36.0186234,-77.7742185,ChIJCWeZ0ht9rokRHP7svAV5iFg
North Central Bible College,ncbc.edu,910 Elliot Ave S, Minneapolis,MN,55404, United States,44.9693757,-93.2613429,ChIJbbbF8qAys1IRI83XHfbpVVE
North Dakota State University,ndsu.nodak.edu,1340 Administration Ave, Fargo,ND,58105, United States,46.8977528,-96.8024367,ChIJjZD3OF7JyFIR4uiLp5hfXxU
Northland College,northland.edu,1411 Ellis Ave S, Ashland,WI,54806, United States,46.5802698,-90.8736669,ChIJRYN70PkTqVIR5c7tV1D7KGU
North Park College and Theological Seminary,npcts.edu,3225 W Foster Ave, Chicago,IL,60625, United States,41.9743444,-87.7115273,ChIJL6arjuLND4gRno2IaYmM3ZA
Northeastern Illinois University,neiu.edu,5500 St Louis Ave, Chicago,IL,60625, United States,41.9805024,-87.7182002,ChIJke6gonTOD4gRWKJR8RA-Rlo
Northeastern Louisiana University,nlu.edu,175 Sam Sibley Dr, Natchitoches,LA,71457, United States,31.7487611,-93.0977934,ChIJlWBKKGB9MIYRYKbFbCJPylI
Northeastern State University,nsuok.edu,600 N Grand Ave, Tahlequah,OK,74464, United States,35.9214597,-94.9674541,ChIJ802GjvL7yYcRnH-tEw5fGek
Northeastern University,northeastern.edu,360 Huntington Ave, Boston,MA,2115, United States,42.3398067,-71.0891717,ChIJ4VzPmRl644kRjLkiZeYAe8k
Northern Arizona University,nau.edu,S San Francisco St, Flagstaff,AZ,86011, United States,35.1851895,-111.6547075,ChIJ3SD_ZGWPLYcR6VtWfrhi5Us
Northern Illinois University,niu.edu,1425 Lincoln Hwy, DeKalb,IL,60115, United States,41.934233,-88.774069,ChIJp3xwUMEqD4gRAHwPGX3v3zs
Northern Kentucky University,nku.edu,Nunn Dr, Newport,KY,41099, United States,39.0318034,-84.4643828,ChIJ6RaLC26wQYgRVJT24LyA4j4
Northern Michigan University,nmu.edu,1401 Presque Isle Ave, Marquette,MI,49855, United States,46.5596032,-87.4044868,ChIJP0UDPj7fUU0RQCVEBy3riMA
Northern State University,northern.edu,1200 S Jay St, Aberdeen,SD,57401, United States,45.4510995,-98.4844923,ChIJOxXDSdlE0lIR72QVjFfSUuU
Northwest Missouri State University,nwmissouri.edu,800 University Dr, Maryville,MO,64468, United States,40.3519854,-94.8825243,ChIJsRm9t4VVwIcRRIAzTJbalPw
Northwest Nazarene College,nnc.edu,623 S University Blvd, Nampa,ID,83686, United States,43.5612431,-116.5666261,ChIJHx8UlgdMrlQRURjYB0_QbG4
Northwestern College of Iowa,nwciowa.edu,101 7th St SW, Orange City,IA,51041, United States,42.9979484,-96.0582598,ChIJ14Sg7Fy1jYcRov0syyA1VEI
Northwestern State University,nsula.edu,175 Sam Sibley Dr, Natchitoches,LA,71457, United States,31.7487611,-93.0977934,ChIJlWBKKGB9MIYRYKbFbCJPylI
Northwestern University,nwu.edu,633 Clark St, Evanston,IL,60208, United States,42.0564594,-87.675267,ChIJOUw-cAvQD4gRBmHV-me1Nyw
Norwich University,norwich.edu,158 Harmon Dr, Northfield,VT,5663, United States,44.1390054,-72.6612317,ChIJpZTI1L4PtUwRdP5tA79FkP0
Nova Southeastern University,nova.edu,3301 College Ave, Fort Lauderdale,FL,33314, United States,26.0789364,-80.2462675,ChIJP64CCSWo2YgRtpDSAVz346g
Oakland University,oakland.edu,318 Meadow Brook Rd, Rochester,MI,48309, United States,42.6688483,-83.2066415,ChIJP1-JSpLqJIgRmUDBbbDvlOk
Oberlin College,oberlin.edu,173 W Lorain St, Oberlin,OH,44074, United States,41.293483,-82.2236001,ChIJ5fKhn34KOogRZuYN4JEy-to
Occidental College,oxy.edu,1600 Campus Rd, Los Angeles,CA,90041, United States,34.1273615,-118.2105035,ChIJoTIjJWbBwoARpljh1m4ytbc
Ohio Dominican College,odc.edu,1216 Sunbury Rd, Columbus,OH,43219, United States,39.9936875,-82.9410043,ChIJnSfZT5iJOIgRp2NydHmJA4I
Ohio Northern University,onu.edu,525 S Main St, Ada,OH,45810, United States,40.7663058,-83.8324991,ChIJmde4EjvHPogRW2FFb6oj2ro
Ohio State University Columbus,ohio-state.edu,2700 Kenny Rd,Columbus,OH,43210, United States,40.0141905,-83.0309143,ChIJs6fo3Y-OOIgRj4dWIQjYLKs
Ohio State University Marion,marion.ohio-state.edu,1465 Mt Vernon Ave, Marion,OH,43302, United States,40.5803706,-83.0915087,ChIJT4yYUKUaOYgRDfuRw4Snwd0
Ohio Wesleyan University,owu.edu,249 Park Ave, Delaware,OH,43015, United States,40.2961832,-83.0713113,ChIJfSRP1M_6OIgRcJuU-1jCcvQ
Ohio University Athens,ohiou.edu,71 S Court St,Athens,OH,45701, United States,39.324358,-82.1013889,ChIJswiEvrhzSIgR9udJdKNks2s
Oklahoma Baptist University,okbu.edu,500 W University St, Shawnee,OK,74804, United States,35.3614307,-96.9340853,ChIJSSIQKPu3s4cRiBWS1PndGMg
Oklahoma City University,okcu.edu,2501 N Blackwelder Ave, Oklahoma City,OK,73106, United States,35.4955747,-97.5410682,ChIJe7zZY6MQsocRObNXPH1ctwU
Oklahoma State University,okstate.edu,1514 W Hall of Fame Ave,Stillwater,OK,74074, United States,36.1270236,-97.0737222,ChIJ_3VGkxYKsYcRbAtJw-3gjiQ
Old Dominion University,odu.edu,5115 Hampton Blvd, Norfolk,VA,23529, United States,36.8856104,-76.3067777,ChIJRTm6JK2ZuokRrEtOLEPcK80
Olivet Nazarene University,olivet.edu,1 University Ave, Bourbonnais,IL,60914, United States,41.1549071,-87.8723694,ChIJ5Sr2SpTdDYgRNu2wZCaQNtw
Oral Roberts University,oru.edu,7777 S Lewis Ave, Tulsa,OK,74171, United States,36.0513147,-95.9516891,ChIJdwdeD7iTtocRxvgglcY007Y
Oregon Graduate Institute of Science and Technology,ogi.edu,3201 Campus Dr, Klamath Falls,OR,97601, United States,42.2586823,-121.7836222,ChIJ9zgYZofTyFQRC0Bpn0Ol55w
Oregon Institute of Technology,oit.osshe.edu,3201 Campus Dr, Klamath Falls,OR,97601, United States,42.2586823,-121.7836222,ChIJ9zgYZofTyFQRC0Bpn0Ol55w
Oregon State University,orst.edu,201 SW Waldo Pl,Corvallis,OR,97331, United States,44.5637806,-123.2794443,ChIJQ7tQ6rlAwFQRn7T3Adzx_6Y
Otterbein College,otterbein.edu,1 S Grove St, Westerville,OH,43081, United States,40.1268746,-82.9371852,ChIJMVjn7Q_1OIgRAq0U2aBnM7E
Our Lady of the Lake University,ollusa.edu,411 SW 24th St, San Antonio,TX,78207, United States,29.4264099,-98.5433654,ChIJxVszOcxeXIYRyCRk93Ag7bc
Pace University,pace.edu,1 Pace Plaza, New York,NY,10038, United States,40.7111197,-74.0048567,ChIJR7SnMP5YwokRHx_9pfBVCoo
Pacific Lutheran University,plu.edu,12180 Park Ave S, Tacoma,WA,98447, United States,47.1453532,-122.4440668,ChIJ7f9NLYEBkVQRJ2hX6QH68Dk
Pacific Union College,puc.edu,1 Angwin Ave, Angwin,CA,94508, United States,38.5698777,-122.4394834,ChIJ4a9wqnxZhIARwzHc9KQp5YE
Pacific University,pacificu.edu,2043 College Way, Forest Grove,OR,97116, United States,45.5209028,-123.1096408,ChIJayAZS3wZlVQRpA1LzqnDHus
Palm Beach Atlantic College,pbac.edu,901 S Flagler Dr, West Palm Beach,FL,33401, United States,26.7037972,-80.0524567,ChIJ4SmbCPXW2IgR13pkdDI5rlg
Peace College,Peace.edu,15 East Peace Street, Raleigh,NC,27604, United States,35.789481,-78.637391,ChIJuxciyUFfrIkRU2_UWgbqAkw
Pembroke State University,pembroke.edu,1 University Drive, Pembroke,NC,28372, United States,34.6898838,-79.2005721,ChIJq1zRL4DXqokRH74phHTSzow
Pennsylvania State System of Higher Education,sshechan.edu,2986 N 2nd St, Harrisburg,PA,17110, United States,40.2948867,-76.904394,ChIJY3KB7rLGyIkRGHyl3S5BRiw
Pennsylvania State University,psu.edu,Old Main, State College,PA,16801, United States,40.7982133,-77.8599084,ChIJkQJdfySmzokRaYLkVpuOPq0
Pennsylvania State University-Schuylkill Campus,sl.psu.edu,200 University Dr, Schuylkill Haven,PA,17972, United States,40.6393157,-76.167348,ChIJHfyzW9foxYkRTU_jyTGEfZ4
Pensacola Christian College,pcci.edu,250 Brent Ln, Pensacola,FL,32503, United States,30.4708067,-87.2345137,ChIJBQyu35K_kIgRW9U1Pmk4iTs
Pepperdine University,pepperdine.edu,24255 Pacific Coast Hwy, Malibu,CA,90263, United States,34.0414045,-118.7095814,ChIJp1Mqvq8f6IARk9BdNpkiaO4
Peru State College,peru.edu,600 Hoyt St, Peru,NE,68421, United States,40.4747647,-95.7321485,ChIJPaB7ae93lIcR2gDSE2_k7TA
Philadelphia College of Textiles and Science,philacol.edu,4201 Henry Ave, Philadelphia,PA,19144, United States,40.0187208,-75.1922881,ChIJX8JQi2a4xokR6Lne_ttSsSY
Phillips University,phillips.edu,2615 E Randolph Ave, Enid,OK,73701, United States,36.397669,-97.841491,ChIJgUMxX4HTr4cRfJKanFUl9hk
Pittsburg State University,pittstate.edu,1701 S Broadway St, Pittsburg,KS,66762, United States,37.3902857,-94.6915709,ChIJJaj-utzCx4cRwdSqGFAKuMk
Pitzer College,pitzer.edu,1050 N Mills Ave, Claremont,CA,91711, United States,34.1046624,-117.7047193,ChIJn3Cogrsxw4AR1oCQyAthZfs
Platt College,platt.edu,1000 Fremont Ave, Alhambra,CA,91803, United States,34.081829,-118.15005,ChIJYbD9nAXFwoAR9t01Cnmv1_Q
Plymouth State College,plymouth.edu,17 High St, Plymouth,NH,3264, United States,43.7595034,-71.6882543,ChIJlzQjWzlcs0wRMsrjg2UIiXM
Point Loma Nazarene College,pointloma.edu,3900 Lomaland Dr, San Diego,CA,92106, United States,32.716863,-117.250694,ChIJ0Udq_t3bwoARY5ZofSu3i68
Polytechnic University of New York,poly.edu,6 MetroTech Center, Brooklyn,NY,11201, United States,40.6942036,-73.986579,ChIJ85aDTUpawokR95FkWT0xm9o
Pomona College,pomona.edu, 333 N College Way, Claremont,CA,91711, United States,34.097743,-117.711803,ChIJRbagpr8xw4ARfqchaG3HTY0
Portland State University,pdx.edu,1800 SW 6th Ave #101, Portland,OR,97201, United States,45.5112984,-122.6821403,ChIJZew1tgMKlVQRILqVjOdXJ3Q
Pratt Institute,pratt.edu,200 Willoughby Ave, Brooklyn,NY,11205, United States,40.6912807,-73.962537,ChIJx_RTa79bwokRSH3VPwZKL08
Prescott College,asu.edu,220 Grove Ave, Prescott,AZ,86301, United States,34.544785,-112.4765736,ChIJ9zeJ0NcoLYcRoiY3lKlx7vI
Princeton University,princeton.edu,1 Washington Rd,Princeton,NJ,8544, United States,40.3439888,-74.6514481,ChIJ6baYzdjmw4kRTwKQ-tZ-ugI
Presbyterian College,presby.edu,503 S Broad St, Clinton,SC,29325, United States,34.465182,-81.877559,ChIJ-WYiTtTpV4gRxEV32t7cSyE
Providence College,providence.edu,1 Cunningham Square, Providence,RI,2918, United States,41.8440925,-71.4381653,ChIJe3hbSK1F5IkRHaEbf-UzSfE
Purdue University,purdue.edu,610 Purdue Mall, West Lafayette,IN,47907, United States,40.4237054,-86.9211946,ChIJBwU-Qjf9EogRjnwai8-yzI4
Purdue University Calumet,purdue.edu,2200 169th St, Hammond,IN,46323, United States,41.5808528,-87.4735602,ChIJV_7D3RreEYgRlzI4Am30P8s
Purdue University North Central,purduenc.edu,2200 169th St, Hammond,IN,46323, United States,41.5808528,-87.4735602,ChIJV_7D3RreEYgRlzI4Am30P8s
Quincy University,quincy.edu,1800 College Ave, Quincy,IL,62301, United States,39.9405616,-91.3855142,ChIJHYQ7K7z33YcRDS8jHDfD2us
Quinnipiac College,quinnipiac.edu,275 Mt Carmel Ave, Hamden,CT,6518, United States,41.4196819,-72.8952178,ChIJV3n47P7P54kRK2HrsI2uu2k
Radford University,runet.edu,801 E Main St, Radford,VA,24141, United States,37.1382689,-80.5506221,ChIJP8lryYbuTYgRpXZ65EIKWQI
Ramapo College,ramapo.edu,505 Ramapo Valley Rd, Mahwah,NJ,7430, United States,41.0815079,-74.1746234,ChIJZ-40AqThwokR5zVOLCxa-Ro
Randolph-Macon College,rmc.edu,114 College Ave, Ashland,VA,23005, United States,37.7603794,-77.4783518,ChIJQ3AbWGQ5sYkRUGgmGs8dtC8
Randolph-Macon Woman's College,rmwc.edu,2500 Rivermont Ave, Lynchburg,VA,24503, United States,37.436964,-79.172197,ChIJ38C4TrPZsokRvLEVCEEaoj0
Reed College,reed.edu,3203 SE Woodstock Blvd, Portland,OR,97202, United States,45.4809782,-122.6303724,ChIJcwb3mKIKlVQROJjCuG2t5kY
Regent University,regent.edu,1000 Regent University Dr, Virginia Beach,VA,23464, United States,36.801329,-76.1922416,ChIJuQdWVcS9uokRnyQCr7DpjQc
Regis University,regis.edu,3333 Regis Blvd, Denver,CO,80221, United States,39.7893676,-105.0298065,ChIJn4Xi_4mHa4cRMLmWCFl31Ao
Rensselaer Polytechnic Institute,rpi.edu,110 8th St, Troy,NY,12180, United States,42.730172,-73.678803,ChIJfQn6654P3okRAlMf2xMrWaU
Rhode Island College,ric.edu,600 Mt Pleasant Ave, Providence,RI,2908, United States,41.842207,-71.461204,ChIJGbgZEMtF5IkRTzc30VZ4kAg
Rhodes College,rhodes.edu,2000 North Pkwy, Memphis,TN,38112, United States,35.1550839,-89.9892872,ChIJuYETwJCAf4gR2ebGom_pEfw
Rice University,rice.edu,6100 Main St, Houston,TX,77005, United States,29.7173941,-95.4018312,ChIJH47xt2TAQIYRtT7EZfCczeI
Richard Stockton College of New Jersey,stockton.edu,101 Vera King Farris Dr, Galloway,NJ,8205, United States,39.4941665,-74.5323795,ChIJeXOluMLmwIkRtWmsN1pjyIA
Rider University,rider.edu,2083 Lawrenceville Rd, Lawrenceville,NJ,8648, United States,40.279623,-74.738187,ChIJWfW6i4ziw4kRHVynEijaC9A
Ripon College,Ripon.EDU,300 Seward St, Ripon,WI,54971, United States,43.8432217,-88.8409595,ChIJlcH3Tz9UAYgRH09q5bOncY4
Rivier College,riv.edu,420 Main St, Nashua,NH,3060, United States,42.7391326,-71.4542671,ChIJ_YVu0r-w44kRnIJ-u5jDNTM
Roanoke College,roanoke.edu,221 College Lane, Salem,VA,24153, United States,37.294248,-80.054927,ChIJAWCLgy0KTYgRCxOTWa6EshQ
Rochester Institute of Technology,rit.edu,1 Lomb Memorial Dr, Rochester,NY,14623, United States,43.0861017,-77.6705143,ChIJVX4UOmBM0YkRAyzi1R6zfr4
The Rockefeller University,rockefeller.edu,1230 York Ave, New York,NY,10065, United States,40.7625706,-73.9556889,ChIJjSuAGsNYwokRSi5irFmIJBI
Rockford College,rockford.edu,5050 E State St, Rockford,IL,61108, United States,42.2688933,-89.0187448,ChIJdQtZ2Sq_CIgRODTmrq_a-sU
Rockhurst College,rockhurst.edu,1100 Rockhurst Rd, Kansas City,MO,64110, United States,39.0309267,-94.5715545,ChIJU6rD5oTvwIcRFrq3Ga7H_uY
Rocky Mountain College,rocky.edu,1511 Poly Dr, Billings,MT,59102, United States,45.7965967,-108.5581513,ChIJGdOCZH17SFMRCcQL31dh1tY
Roger Williams University,rwu.edu,1 Old Ferry Rd, Bristol,RI,2809, United States,41.6510618,-71.2594597,ChIJfz0dMuxU5IkR6OY9Q6WNE1w
Rollins College,rollins.edu,1000 Holt Ave, Winter Park,FL,32789, United States,28.592242,-81.348326,ChIJgZFE6g5w54gRv9I8xpcppoE
Rose-Hulman Institute of Technology,rose-hulman.edu,5500 Wabash Ave, Terre Haute,IN,47803, United States,39.4830622,-87.3234824,ChIJNzdwG0JubYgRpOFaMIB2RJY
Rowan College,rowan.edu,601 Pemberton Browns Mills Road, Pemberton,NJ,8068, United States,39.9647506,-74.6473625,ChIJESJLw_5AwYkRCMwt6YtWfA4
Rutgers University,rutgers.edu,7 College Ave, New Brunswick,NJ,8901, United States,40.4981958,-74.4467958,ChIJBwHNB27Gw4kROPydWpXKMWI
Rutgers University Camden,rutgers.edu,303 Cooper St, Camden,NJ,8102, United States,39.9492076,-75.1229174,ChIJfX2IGPHIxokRf2C75puxN8E
Rutgers University Newark,rutgers.edu,195 University Ave, Newark,NJ,7102, United States,40.741187,-74.1753095,ChIJCWvuQX5TwokRDRsCAFXDxUc
The Sage Colleges,sage.edu,140 New Scotland Ave, Albany,NY,12208, United States,42.6514661,-73.7825767,ChIJ2WTHy1wK3okRXmh98vaSTjA
Sacred Heart University,CT sacredheart.edu,5151 Park Ave, Fairfield,CT,6825, United States,41.2203902,-73.2433003,ChIJNY9_ijwP6IkRaExZNUiWAWg
Sacred Heart University,PR usc.clu.edu,5151 Park Ave, Fairfield,CT,6825, United States,41.2203902,-73.2433003,ChIJNY9_ijwP6IkRaExZNUiWAWg
Saginaw Valley State University,svsu.edu,7400 Bay Rd, Saginaw,MI,48604, United States,43.5142733,-83.9623559,ChIJP-WmCAbdI4gRDHBqkqY4ycc
St. Ambrose University,sau.edu,518 Locust St, Davenport,IA,52803, United States,41.5404254,-90.5807611,ChIJz-Lvzeo04ocRrcQrGHKZHlg
St. Andrews Presbyterian College,sapc.edu,1700 Dogwood Mile St, Laurinburg,NC,28352, United States,34.7448064,-79.4800711,ChIJn-2IdvIpVYgREcLObkIu3YI
Saint Anselm College,anselm.edu,100 St Anselm Dr, Manchester,NH,3102, United States,42.9874723,-71.5072307,ChIJEW2vPRdJ4okR9OszcPO2Ao4
St. Bonaventure University,sbu.edu,3261 W State St, St Bonaventure,NY,14778, United States,42.0784113,-78.4828822,ChIJt4UpC3p60okRr60yoqabIB0
Saint Cloud State University,stcloud.msus.edu,720 4th Ave S, St Cloud,MN,56301, United States,45.5511863,-94.1515138,ChIJ7UudNHJgtFIR-HEH3x_g7mY
Saint Edward's University,stedwards.edu,3001 S Congress Ave, Austin,TX,78704, United States,30.2297224,-97.7538582,ChIJGyBhrpK0RIYRNhPly4LCQhE
Saint Francis College,sfcpa.edu,180 Remsen St, Brooklyn,NY,11201, United States,40.69323,-73.992165,ChIJWf3Z3UhawokR8msqSjdEPEU
St. John's College-Annapolis,sjca.edu,60 College Ave, Annapolis,MD,21401, United States,38.981963,-76.491536,ChIJqewI-VH2t4kReMMFl2r2zaI
St. John's College-Santa Fe,sjcsf.edu,60 College Ave, Annapolis,MD,21401, United States,38.981963,-76.491536,ChIJqewI-VH2t4kReMMFl2r2zaI
Saint John's University,MN csbsju.edu,8000 Utopia Pkwy, Jamaica,NY,11439, United States,40.7215967,-73.7946899,ChIJGf9edgJhwokRc4JetPDR0SU
Saint John's University,NY stjohns.edu,8000 Utopia Pkwy, Jamaica,NY,11439, United States,40.7215967,-73.7946899,ChIJGf9edgJhwokRc4JetPDR0SU
St. Joseph College,CT sjc.edu,245 Clinton Ave, Brooklyn,NY,11205, United States,40.690509,-73.9677729,ChIJ0X-GD7lbwokRk95GVJ4WAlU
Saint Joseph's College,IN saintjoe.edu,278 Whites Bridge Rd, Standish,ME,4084, United States,43.8267427,-70.4828684,ChIJ17g_kauMskwRvsdZo6gu6pI
St. Joseph's College,ME sjcme.edu,245 Clinton Ave, Brooklyn,NY,11205, United States,40.690509,-73.9677729,ChIJ0X-GD7lbwokRk95GVJ4WAlU
Saint Joseph's University,sju.edu,5600 City Ave, Philadelphia,PA,19131, United States,39.9946832,-75.2416405,ChIJTfY6lk7HxokR0dstxMRTlAk
St. Lawrence University,stlawu.edu,23 Romoda Dr, Canton,NY,13617, United States,44.5892119,-75.1608814,ChIJxcPbtYH2zEwREXH5YvrMFq0
St. Louis College of Pharmacy,stlcop.edu,4588 Parkview Pl, St. Louis,MO,63110, United States,38.6366082,-90.2608742,ChIJoY3mrti02IcRAukjKzmPMSQ
Saint Louis University,slu.edu,1 N Grand Blvd, St. Louis,MO,63103, United States,38.6354598,-90.2338232,ChIJixFfjou02IcRTIHxbsNBy8k
Saint Mary College,smcks.edu,1928 St Marys Rd, Moraga,CA,94575, United States,37.8413472,-122.1101353,ChIJYycE0UyIj4ARPazxyF5Nr_Q
Saint Mary's College,IN saintmarys.edu,1928 St Marys Rd, Moraga,CA,94575, United States,37.8413472,-122.1101353,ChIJYycE0UyIj4ARPazxyF5Nr_Q
Saint Mary's College of California,stmarys-ca.edu,1928 St Marys Rd, Moraga,CA,94575, United States,37.8413472,-122.1101353,ChIJYycE0UyIj4ARPazxyF5Nr_Q
Saint Mary's University of Minnesota,smumn.edu,700 Terrace Heights, Winona,MN,55987, United States,44.0447762,-91.6959211,ChIJF9IEAWBy-YcRF5j57TfOMBk
Saint Michael's College,smcvt.edu,One Winooski Park, Colchester,VT,5439, United States,44.4951628,-73.1627561,ChIJMW8sUAl6ykwRlOsVIlm6ktk
Saint Olaf College,stolaf.edu,1520 St Olaf Ave, Northfield,MN,55057, United States,44.4617681,-93.1828167,ChIJqW1q7XtR9ocRzmDxSgyZK_U
St. Thomas University,FL stu.edu,16401 NW 37th Ave, Miami Gardens,FL,33054, United States,25.9223793,-80.2564271,ChIJxWVnOuqv2YgRzBvKaCl2pVs
Saint Vincent College,stvincent.edu,300 Fraser Purchase Rd, Latrobe,PA,15650, United States,40.2914205,-79.4003653,ChIJkctcppXSNIgR0hmwdXZIPzI
Saint Xavier University,sxu.edu,3700 W 103rd St, Chicago,IL,60655, United States,41.7067521,-87.7160311,ChIJSbXKjNw6DogRCM6wSvKyBX8
Salisbury State University,ssu.umd.edu,1101 Camden Ave, Salisbury,MD,21801, United States,38.345073,-75.6046968,ChIJuet6zgkEuYkRp5wjRFw7fGs
Salish Kootenai College,skc.edu,58138 US-93, Pablo,MT,59855, United States,47.597485,-114.111796,ChIJCVtfe5xwZ1MRYkua4YB0qxk
Sam Houston State University,shsu.edu,1905 University Ave, Huntsville,TX,77340, United States,30.7131978,-95.5503566,ChIJTZS8s5cIR4YRfObmAxdML6g
Samford University,samford.edu,800 Lakeshore Dr, Homewood,AL,35209, United States,33.4647494,-86.793631,ChIJz5agMW0ZiYgRQ8N5ZMrFapM
San Diego State University,sdsu.edu,5500 Campanile Dr, San Diego,CA,92182, United States,32.7768233,-117.0693407,ChIJpxgFlYdW2YARV1osCBKWFi8
San Francisco State University,sfsu.edu,1600 Holloway Ave, San Francisco,CA,94132, United States,37.721897,-122.4782094,ChIJgeLABbB9j4AR00VqlJ98eqU
San Jose State University,sjsu.edu,1 Washington Sq, San Jose,CA,95192, United States,37.3351874,-121.8810715,ChIJ1UPeZLjMj4ARDjQ3GXL-fzk
Santa Clara University,scu.edu,500 El Camino Real, Santa Clara,CA,95053, United States,37.3496418,-121.9389875,ChIJwz4wNq_Lj4ARR-PU9hShHFY
Sarah Lawrence College,slc.edu,1 Mead Way, Bronxville,NY,10708, United States,40.9360524,-73.8433974,ChIJL9XU7lTtwokRne5NUoR_7U4
School of the Art Institute of Chicago,artic.edu,112 S Michigan Ave, Chicago,IL,60603, United States,41.8802861,-87.6249193,ChIJlUbZ4qMsDogRz79NyAOGuH8
Seattle Pacific University,spu.edu,3307 3rd Ave W, Seattle,WA,98119, United States,47.6495805,-122.3615366,ChIJlXOYeKcVkFQRU9Psu21dtJo
Seattle University,seattleu.edu,901 12th Ave, Seattle,WA,98122, United States,47.6092282,-122.3177136,ChIJoZv0y8hqkFQRQcB9L4Wi1EM
Seton Hall University,shu.edu,400 S Orange Ave, South Orange,NJ,7079, United States,40.743011,-74.2471001,ChIJLeJn45msw4kR2npL3ZOZUcA
Sewanee University of the South,sewanee.edu,735 University Ave, Sewanee,TN,37383, United States,35.20518,-85.9176606,ChIJwaCAnjoLYYgRq1a5i7_P8AE
Shawnee State University,shawnee.edu,940 2nd St, Portsmouth,OH,45662, United States,38.731371,-82.9920733,ChIJGbBhsICLRogR3vyJ_iDMZcA
Shenandoah University,su.edu,1460 University Dr, Winchester,VA,22601, United States,39.1660159,-78.1583388,ChIJp6ckfP7utYkRsMUDi1G6AaQ
Shippensburg University of Pennsylvania,ship.edu,1871 Old Main Dr, Shippensburg,PA,17257, United States,40.0603939,-77.5234365,ChIJQ4AGgYwMyYkRXJ8rNk3Fcwc
Shorter College,shorter.edu,315 Shorter Ave NW, Rome,GA,30165, United States,34.2594732,-85.193711,ChIJfaBqpWCjiogRS-aHBRo3iVM
Simon's Rock College,simons-rock.edu,84 Alford Rd, Great Barrington,MA,1230, United States,42.207976,-73.378238,ChIJdx4MBDZh54kRDfs-9LaYgGQ
Simpson College,simpson.edu,701 N C St, Indianola,IA,50125, United States,41.364988,-93.563626,ChIJm_-e4j2w7ocRkK4pbjqJWSY
Skidmore College,skidmore.edu,815 N Broadway, Saratoga Springs,NY,12866, United States,43.0972759,-73.7841811,ChIJYZOZdXA33okRuVQF7kjjRK0
Slippery Rock University of Pennsylvania,sru.edu,1 Morrow Way, Slippery Rock,PA,16057, United States,41.0630249,-80.0411691,ChIJLS1ElfF2M4gRZmZLN-uEqGE
Smith College,smith.edu,20 West St,Northampton,MA,1063, United States,42.3180957,-72.6372341,ChIJiVouamjX5okRhESdeEVEFh4
Sonoma State University,sonoma.edu,1801 E Cotati Ave, Rohnert Park,CA,94928, United States,38.3393866,-122.6741812,ChIJAzU_ZFVKhIARlPBzyM7jpBU
South Dakota School of Mines and Technology,sdsmt.edu,501 E St Joseph St, Rapid City,SD,57701, United States,44.0734304,-103.2062959,ChIJ4S8br89CfYcRRRQ62CaHQu0
South Dakota State University,sdstate.edu,1300 N Campus Dr,Brookings,SD,57007, United States,44.3189457,-96.783968,ChIJ6dYH3_qiiYcRq09jmNaa46c
Southeast Missouri State University,semo.edu,1 University Plaza, Cape Girardeau,MO,63701, United States,37.3148783,-89.5280438,ChIJV21zkJWHd4gRocmliX64KJ4
Southeastern Louisiana University,selu.edu,500 W University Ave, Hammond,LA,70402, United States,30.5173159,-90.4688572,ChIJHeYEW5giJ4YRYFbDggLwZQ0
Southern College of Technology,sct.edu,1100 South Marietta Pkwy SE, Marietta,GA,30060, United States,33.9397129,-84.5196566,ChIJeyUVe6sW9YgRjqSfxCe-btA
Southern Connecticut State University,scwww.ctstateu.edu,501 Crescent St, New Haven,CT,6515, United States,41.332566,-72.947462,ChIJ7T8URHbZ54kRfdCTR_6AvCQ
Southern Illinois University,siu.edu,1263 Lincoln Dr, Carbondale,IL,62901, United States,37.7090577,-89.2249134,ChIJA_wI6TwSd4gR0zAAt4nEmJY
Southern Illinois University-Carbondale,siu.edu,1263 Lincoln Dr, Carbondale,IL,62901, United States,37.7090577,-89.2249134,ChIJA_wI6TwSd4gR0zAAt4nEmJY
Southern Illinois University-Edwardsville,siue.edu,1 Hairpin Dr, Edwardsville,IL,62025, United States,38.7930978,-89.9979453,ChIJZWOKnHX4dYgRNigupp9DQ3s
Southern Methodist University,smu.edu,6425 Boaz Lane,Dallas,TX,75205, United States,32.8412178,-96.7845175,ChIJFU7ARwSfToYRLlSZG7jKX8A
Southern Nazarene University,snu.edu,6729 NW 39th Expy, Bethany,OK,73008, United States,35.513507,-97.629217,ChIJHYsS70IFsocRacAsVM3VgCk
Southern Oregon State College,sosc.osshe.edu,1250 Siskiyou Blvd, Ashland,OR,97520, United States,42.1859996,-122.6959071,ChIJnaZeYqMMz1QRncwVeD-cAKs
Southern University,subr.edu,801 Harding Blvd, Baton Rouge,LA,70807, United States,30.5267645,-91.1935768,ChIJt12yNoufJoYRWKaZLod_BYI
Southern Utah University,suu.edu,351 W University Blvd, Cedar City,UT,84720, United States,37.676444,-113.071332,ChIJfd_0871htYAR3Ee3JYI7pOg
South Texas College of Law,stcl.edu,1303 San Jacinto St, Houston,TX,77002, United States,29.7529503,-95.3649387,ChIJU-UTVjy_QIYR4YnRj_ncMIs
Southwest Baptist University,sbuniv.edu,1600 University Ave, Bolivar,MO,65613, United States,37.6003817,-93.4083636,ChIJrUdJb--_xYcRSNGKS_270dc
Southwest Missouri State University,smsu.edu,901 S National Ave, Springfield,MO,65897, United States,37.200566,-93.2806696,ChIJG34X8xtjz4cR7KzI0vH8KEM
Southwest State University,southwest.msus.edu,1501 State St, Marshall,MN,56258, United States,44.4560884,-95.759773,ChIJJ2QOq-9YiocR8CCvQZJHHy8
Southwest Texas State University,swt.edu,601 University Dr, San Marcos,TX,78666, United States,29.888411,-97.938351,ChIJ3yStNnCoXIYRkulAp54VF3E
Southwestern Adventist College,swac.edu,100 W Hillcrest St, Keene,TX,76059, United States,32.3962581,-97.3264832,ChIJ6bxfvGtEToYRbO_oVJ6NM5s
Southwestern University,southwestern.edu,1001 E University Ave, Georgetown,TX,78626, United States,30.6349251,-97.6651268,ChIJbT-9R07WRIYRs0rIFBl0QNI
Spelman College,auc.edu,350 Spelman Ln, Atlanta,GA,30314, United States,33.7463597,-84.4122934,ChIJe4xn2m4D9YgRFn9Ne-W_0fg
Spring Arbor College,arbor.edu,106 E Main St, Spring Arbor,MI,49283, United States,42.2078734,-84.5563208,ChIJF1tbDNC3JIgRzN6L7WIQAb0
Spring Hill College,shc.edu,4000 Dauphin St, Mobile,AL,36608, United States,30.6919256,-88.1357344,ChIJ_b1rhnxNmogR_Sus1hlxVv4
Stanford University,stanford.edu, 450 Serra Mall, Stanford,CA,94305, United States,37.4274745,-122.169719,ChIJneqLZyq7j4ARf2j8RBrwzSk
State University of New York at Albany,albany.edu,1400 Washington Ave, Albany,NY,12222, United States,42.6849434,-73.8252496,ChIJNcvFFTsL3okRnp6AsL_tw8c
State University of New York College of Technology at Alfred,alfredtech.edu,10 Upper College Dr, Alfred,NY,14802, United States,42.2552377,-77.7946533,ChIJU3xhvlOM0YkRPoUgpmCMsjo
State University of New York at Binghamton,binghamton.edu,4400 Vestal Parkway East, Binghamton,NY,13902, United States,42.0893553,-75.9697049,ChIJaTEedLju2okR3z5p7vGc53M
State University of New York College at Brockport,brockport.edu,350 New Campus Dr, Brockport,NY,14420, United States,43.210018,-77.9507327,ChIJyZJax-oB1IkRiBBUu5S1q9I
State University of New York at Buffalo,buffalo.edu,320 Capen Hall,Buffalo,NY,14260, United States,43.0008093,-78.7889697,ChIJnwQbJtJz04kRb_XET01paCg
State University of New York College at Buffalo,Buffalo State College snybuf.edu,1300 Elmwood Ave, Buffalo,NY,14222, United States,42.9326024,-78.8779405,ChIJjQSmUtcS04kRh7xBPyCFjjY
State University of New York College of Agriculture and Technology at Cobleskill,cobleskill.edu,106 Suffolk Circle, Cobleskill,NY,12043, United States,42.671702,-74.498279,ChIJeywqIbUm3IkRg-oPT1inhtw
State University of New York College at Cortland,cortland.edu,22 Graham Ave, Cortland,NY,13045, United States,42.599001,-76.187797,ChIJf-f4BEBs2okR5CWyGx1xylI
State University of New York College of Environmental Science and Forestry,esf.edu,1 Forestry Dr, Syracuse,NY,13210, United States,43.0344612,-76.1369148,ChIJj9T3N5zz2YkRSMA25zGrcwg
State University of New York at Farmingdale,farmingdale.edu,2350 Broadhollow Rd, Farmingdale,NY,11735, United States,40.7542444,-73.4282131,ChIJ6UW0mf4q6IkRvvbLgwAoU2w
State University of New York at Fredonia,fredonia.edu,280 Central Ave, Fredonia,NY,14063, United States,42.4538665,-79.3403633,ChIJS33DtGLM0okRqJULSVkZUuI
State University of New York College at Geneseo,geneseo.edu,1 College Cir, Geneseo,NY,14454, United States,42.796092,-77.8237029,ChIJv9GPqydn0YkROiaykYUiZ_s
State University of New York College at New Paltz,newpaltz.edu,1 Hawk Dr, New Paltz,NY,12561, United States,41.7390054,-74.0851655,ChIJtXdLxHoi3YkRY9q9EJhQRN0
State University of New York College at Oneonta,oneonta.edu,108 Ravine Pkwy, Oneonta,NY,13820, United States,42.465096,-75.065151,ChIJ6VYwzIOM24kR42bm5pFfxb4
State University of New York at Oswego,oswego.edu,7060 NY-104, Oswego,NY,13126, United States,43.4514291,-76.5443166,ChIJdRj9cVtk14kRpln3pC-HrwA
State University of New York at Plattsburgh,plattsburgh.edu,101 Broad St, Plattsburgh,NY,12901, United States,44.692543,-73.466962,ChIJuSlExlhHykwRzeV1-V-RLyA
State University of New York College at Potsdam,potsdam.edu,44 Pierrepont Ave, Potsdam,NY,13676, United States,44.6643102,-74.9761059,ChIJkf659txgzEwRkQc6n1dbva0
State University of New York at Stony Brook,sunysb.edu,100 Nicolls Rd, Stony Brook,NY,11794, United States,40.9123761,-73.1233889,ChIJvzh05jM_6IkRhcy9aqUcTHM
State University of New York Institute of Technology at Utica/Rome,sunyit.edu, 100 Seymour Ave, Utica,NY,13502, United States,43.1355755,-75.2298915,ChIJVdaMsKA42YkRKdbzeZwtO_M
Stephen F. Austin State University,sfasu.edu,1936 North St, Nacogdoches,TX,75962, United States,31.6219236,-94.6462581,ChIJHY_m4-KLN4YR7z1svFMAkmA
Stephens College,stephens.edu,1200 E Broadway, Columbia,MO,65215, United States,38.9515728,-92.3214357,ChIJfXwuX8K33IcRzpNH_GxPl_8
Stetson University,stetson.edu,421 N Woodland Blvd, DeLand,FL,32723, United States,29.035664,-81.3015046,ChIJuXmPRXkb54gRpfMfBJg0msY
Stevens Institute of Technology,stevens-tech.edu,1 Castle Point Terrace, Hoboken,NJ,7030, United States,40.7448376,-74.025683,ChIJT-3clN5ZwokRrnJuCEbRydQ
Suffolk University,suffolk.edu,8 Ashburton Pl, Boston,MA,2108, United States,42.3585205,-71.0613561,ChIJ4VSYqpxw44kRy5YykRJk8Zw
Sul Ross State University,sulross.edu,79830 US-90, Alpine,TX,79830, United States,30.3636948,-103.6497628,ChIJn-Nlswja74YRgJ-DnuU88E0
Summit University of Louisiana,summitunivofla.edu,3501 N Causeway Blvd,New Orleans,LA,70127, United States,30.0087342,-89.9720133,ChIJq6qqql4CnogRjee1A6NW6kc
Susquehanna University,susqu.edu,514 University Ave, Selinsgrove,PA,17870, United States,40.7973267,-76.8744803,ChIJT9n0jOI-z4kRLaqwmizm8PE
Swarthmore College,swarthmore.edu,500 College Ave, Swarthmore,PA,19081, United States,39.9068405,-75.3556483,ChIJj7PqbtLpxokRK7IyQMDWAHs
Sweet Briar College,sbc.edu,134 Chapel Road, Sweet Briar,VA,24595, United States,37.5576478,-79.0828644,ChIJL27BRt8js4kRC-roITyV0dU
Syracuse University,syr.edu,900 South Crouse Ave,Syracuse,NY,13244, United States,43.0391534,-76.1351158,ChIJVcwsup_z2YkRTQhRUgaJYF4
Tabor College,tabor.edu,400 S Jefferson St, Hillsboro,KS,67063, United States,38.3482417,-97.2015185,ChIJ25F4WvV7u4cRQFfRMwJ0YtE
Tarleton State University,tarleton.edu,1333 W Washington St, Stephenville,TX,76401, United States,32.2158978,-98.2159029,ChIJD2aAdNO2UYYR4cP8CmXfvyY
Taylor University,tayloru.edu,236 W Reade Ave, Upland,IN,46989, United States,40.4568032,-85.4976242,ChIJR-fZ9RcEFYgRswQNYKaH62E
Teachers College Columbia University,tc.columbia.edu,525 W 120th St, New York,NY,10027, United States,40.80999,-73.9600535,ChIJu-W3BpFZwokRvK9eSUDsNJk
Temple University,temple.edu,1801 N Broad St, Philadelphia,PA,19122, United States,39.9811935,-75.1553512,ChIJDzmJJf-3xokR3i50d5pyWAU
Tennessee State University,tnstate.edu,3500 John A Merritt Blvd, Nashville,TN,37209, United States,36.1668224,-86.8275815,ChIJBaXSmS1hZIgRioiGmTSelVA
Tennessee Technological University,tntech.edu,1 William L Jones Dr, Cookeville,TN,38505, United States,36.1756361,-85.5085876,ChIJi6UMDgkiZ4gRwr1qzlLjmK8
Texas A&M International University,tamiu.edu,Texas Ave, College Station,TX,77840, United States,30.624139,-96.3304465,ChIJYYwOVYyDRoYRzx7a4Ydvcmw
Texas A&M University-College Station,tamu.edu,Texas Ave, College Station,TX,77840, United States,30.624139,-96.3304465,ChIJYYwOVYyDRoYRzx7a4Ydvcmw
Texas A&M University-Corpus Christi,tamucc.edu,Texas Ave, College Station,TX,77840, United States,30.624139,-96.3304465,ChIJYYwOVYyDRoYRzx7a4Ydvcmw
Texas A&M University-Kingsville,taiu.edu,Texas Ave, College Station,TX,77840, United States,30.624139,-96.3304465,ChIJYYwOVYyDRoYRzx7a4Ydvcmw
Texas Christian University,tcu.edu,2800 S University Dr, Fort Worth,TX,76129, United States,32.70953,-97.362795,ChIJ_b0MPT1yToYR8N8IrsgBNwU
Texas Southern University,tsu.edu,3100 Cleburne St, Houston,TX,77004, United States,29.7217625,-95.3606121,ChIJgbfmvaa_QIYRK0s_xu9br2Y
Texas Tech University,ttu.edu,2500 Broadway, Lubbock,TX,79409, United States,33.5842591,-101.8782822,ChIJR8ge8xPEQIYRSXiwt3SzLQU
Texas Tech University-Health Sciences Center,ttuhsc.edu,3601 4th St, Lubbock,TX,79430, United States,33.5891044,-101.8919265,ChIJG2NfU1gN_oYR6DBPZ6BoiNM
Texas Woman's University,twu.edu,304 Administration Dr, Denton,TX,76204, United States,33.2262879,-97.1271034,ChIJYTdn0oXKTYYRHkAILqP-ojY
Thomas College,thomas.edu,180 West River Road, Waterville,ME,4901, United States,44.5248638,-69.6635795,ChIJ0USAS7vksUwRZVo_LgrCSrg
Thomas Edison State College,tesc.edu,111 W State St, Trenton,NJ,8608, United States,40.220262,-74.768303,ChIJp9B2Ls5ZwYkR63pd66EwsZY
Thomas Jefferson University,tju.edu,130 S 9th St, Philadelphia,PA,19107, United States,39.9489094,-75.1559531,ChIJafq6DCjGxokRS77k8Gdy29Q
Thomas More College,thomasmore.edu,333 Thomas More Pkwy, Crestview Hills,KY,41017, United States,39.0216667,-84.5680762,ChIJEyYakda5QYgREMNY_3LP53Y
Towson State University,towson.edu,8000 York Rd, Towson,MD,21252, United States,39.3925121,-76.6126392,ChIJAQxhBr4PyIkRVPiCtu4WOZw
Transylvania University,transy.edu,300 N Broadway, Lexington,KY,40508, United States,38.053147,-84.4936508,ChIJ4ePUqPFEQogRKHeJGjaT5iI
Trenton State College,trenton.edu,2000 Pennington Rd, Ewing Township,NJ,8628, United States,40.2691421,-74.7774394,ChIJu5RcfABYwYkRijSwZUBtecs
Trinity College,CT trincoll.edu,300 Summit St, Hartford,CT,6106, United States,41.7479332,-72.6903345,ChIJR3sv7zxT5okRpV_PhLwqJbg
Trinity College,DC,300 Summit St, Hartford,CT,6106, United States,41.7479332,-72.6903345,ChIJR3sv7zxT5okRpV_PhLwqJbg
Trinity University,trinity.edu,1 Trinity Pl, San Antonio,TX,78212, United States,29.4618444,-98.4831622,ChIJxbr4W5lhXIYRm5i5E_ZaaRU
Troy State University,tsufl.edu,600 University Ave, Troy,AL,36082, United States,31.8018895,-85.9572283,ChIJedLZw-XsjYgRn4N17d1Yec4
Truman State University,truman.edu,100 E Normal St, Kirksville,MO,63501, United States,40.1858573,-92.5813724,ChIJO03yKWIO6IcR1seRho8bN2o
Tucson University,tucsonu.edu,1510 E University Blvd,Tucson,AZ,85721, United States,32.2318851,-110.9501094,ChIJTZpd7qpx1oYRZs9AZMBoWIw
Tuskegee University,tusk.edu,1200 W Montgomery Rd, Tuskegee,AL,36088, United States,32.430678,-85.7072853,ChIJvyaVKuZQjIgRqQqF9fXsFPw
Union College,union.edu,807 Union St, Schenectady,NY,12308, United States,42.817017,-73.9298053,ChIJ46xT2OVt3okR8TRGlBgrT3w
The Union Institute,tui.edu,440 E McMillan St, Cincinnati,OH,45206, United States,39.126963,-84.500025,ChIJFZNDOsCzQYgR6JdEbcSdk28
Union University,uu.edu,1050 Union University Dr, Jackson,TN,38305, United States,35.6773778,-88.8595906,ChIJB-NEQ5ymfogR5gEh6u2i_EA
United States Merchant Marine Academy,usmma.edu,300 Steamboat Rd, Kings Point,NY,11024, United States,40.8129628,-73.7625503,ChIJp2uRacWLwokRhUHVSSFid0Q
United States Naval Academy,nadn.navy.mil,121 Blake Rd, Annapolis,MD,21402, United States,38.9820658,-76.4839405,ChIJ7x3z2Ej2t4kRb6ZKwowGYfg
The Uniformed Services University of the Health Sciences,usuhs.mil,4301 Jones Bridge Rd, Bethesda,MD,20814, United States,39.0018561,-77.0862793,ChIJnRrI30XJt4kRlZStxgr0bVU
Ursinus College,ursinus.edu,601 E Main St, Collegeville,PA,19426, United States,40.1915099,-75.4558588,ChIJWawyy6GQxokRqaY_hubtsdk
Ursuline College,ursuline.edu,2550 Lander Rd, Pepper Pike,OH,44124, United States,41.4938332,-81.4650273,ChIJIba4JbIDMYgRrWABRl4mwpM
University of Akron,uakron.edu,302 E Buchtel Ave, Akron,OH,44325, United States,41.076655,-81.5113386,ChIJbyeM79gpMYgR0sapmsCf8GY
University of Alabama at Birmingham,uab.edu,1720 2nd Ave S, Birmingham,AL,35294, United States,33.5021227,-86.8064447,ChIJRxq4YekbiYgRS7BbCPlZxlE
University of Alabama at Huntsville,uah.edu,301 Sparkman Dr NW, Huntsville,AL,35899, United States,34.7251414,-86.639747,ChIJtVI91PRrYogR55J90tUt-3s
University of Alabama at Tuscaloosa,ua.edu,125 Gordon Palmer Hall,Tuscaloosa,AL,35487, United States,33.2140233,-87.5391418,ChIJuyDejJkChogREgmu26spDt8
University of Alaska,alaska.edu,3211 Providence Dr, Anchorage,AK,99508, United States,61.1910421,-149.8195598,ChIJ8bmy6gCXyFYRTR9S4kzTHyk
University of Alaska-Anchorage,uaa.alaska.edu,3211 Providence Dr, Anchorage,AK,99508, United States,61.1910421,-149.8195598,ChIJ8bmy6gCXyFYRTR9S4kzTHyk
University of Alaska-Fairbanks,alaska.edu,505 South Chandalar Drive, Fairbanks,AK,99775, United States,64.8557566,-147.8335418,ChIJe1F2jzVbMlERFRZZBKmsSSw
University of Alaska-Southeast,alaska.edu,11120 Glacier Hwy, Juneau,AK,99801, United States,58.384955,-134.6402829,ChIJeWbxHfQdAVQRcSlaraG6Lug
University of Arizona,arizona.edu,1303 E University Blvd,Tucson,AZ,85721, United States,32.2318851,-110.9501094,ChIJTZpd7qpx1oYRZs9AZMBoWIw
University of Arkansas - Fayetteville,uark.edu,471 Garland Ave,Fayetteville,AR,72701, United States,36.0678324,-94.1736551,ChIJL_bwEOZuyYcRZyN-eDv5ohA
University of Arkansas - Little Rock,ualr.edu,2801 S University Ave, Little Rock,AR,72204, United States,34.7240568,-92.3388872,ChIJL_aUdFik0ocRvB5dKX0wEsE
University of Arkansas for Medical Sciences,uams.edu,4301 W Markham St, Little Rock,AR,72205, United States,34.7485426,-92.3214566,ChIJR6W1K6Ck0ocRYYmYGPG3JTg
University of Arkansas - Monticello,uamont.edu,346 University Ct, Monticello,AR,71655, United States,33.5917582,-91.8135589,ChIJjx2RqWlNLIYRL3A0C-9qC_M
University of Baltimore,ubalt.edu,1420 N Charles St, Baltimore,MD,21201, United States,39.3061515,-76.6168857,ChIJhWgJdZUEyIkRfrK6Yf5iFP8
University of Bridgeport,bridgeport.edu,126 Park Ave, Bridgeport,CT,6604, United States,41.1645993,-73.1910355,ChIJcRy6jA4O6IkRd2TQKBDDO5w
University of California Berkeley,berkeley.edu,2000 Carleton Street,Berkeley,CA,94720, United States,37.8718992,-122.2585399,ChIJwdcixRh3j4ARiTJrO-o0gNo
University of California Davis,ucdavis.edu,1 Shields Ave, Davis,CA,95616, United States,38.5382322,-121.7617125,ChIJP_qJdH_T6oARNIN-CCS7v-w
University of California Irvine,uci.edu,5200 Engineering Service Rd,Irvine,CA,92697, United States,33.6404952,-117.8442962,ChIJkb-SJQ7e3IAR7LfattDF-3k
University of California Los Angeles,ucla.edu,120S Election Walk,Los Angeles,CA,90095, United States,34.068921,-118.4451811,ChIJZQ9c8IW8woARN0gTXFiTqSU
University of California Riverside,ucr.edu,900 University Ave, Riverside,CA,92521, United States,33.9737055,-117.3280644,ChIJs5-qh0au3IARMR1yR98LBRA
University of California San Diego,ucsd.edu,9500 Gilman Dr, La Jolla,CA,92093, United States,32.8800604,-117.2340135,ChIJT69MQcQG3IARpz6Rifyqtu8
University of California San Francisco,ucsf.edu,505 Parnassus Ave, San Francisco,CA,94143, United States,37.7631333,-122.4575489,ChIJYxVpxFmHhYARVSKbL2FJ6VY
University of California Santa Barbara,ucsb.edu,525 UCEN Rd,Santa Barbara,CA,93106, United States,34.4139629,-119.848947,ChIJN0sx82c_6YARws62XH5rlU4
University of California Santa Cruz,ucsc.edu,1156 High St, Santa Cruz,CA,95064, United States,36.9913856,-122.0608718,ChIJT7-M_6JBjoAR1SCDknw7jjo
University of Central Arkansas,uca.edu,201 Donaghey Ave, Conway,AR,72035, United States,35.0780913,-92.4579383,ChIJzeRo93SC0ocRsljNAs_321w
University of Central Florida,ucf.edu,4000 Central Florida Blvd, Orlando,FL,32816, United States,28.6024274,-81.2000599,ChIJX0kKal1o54gRq5vHs5Kb1V8
University of Central Texas,tamuct.edu,1001 Leadership Pl, Killeen,TX,76549, United States,31.0528319,-97.7738274,ChIJ3W5XVmCzWoYRHHtGzgdWsww
University of Charleston,uchaswv.edu,2300 MacCorkle Ave SE, Charleston,WV,25304, United States,38.3328289,-81.6165232,ChIJ42IXvr0sT4gRUAmmtQLJrEE
University of Chicago,uchicago.edu,5801 S Ellis Ave, Chicago,IL,60637, United States,41.7886079,-87.5987133,ChIJRUhmExYpDogRyvXSAM9lf18
University of Cincinnati,uc.edu,2600 Clifton Ave, Cincinnati,OH,45220, United States,39.1329219,-84.5149504,ChIJJexly4qzQYgR_MXAgSe0SUI
University of Colorado at Boulder,colorado.edu,1720 Pleasant St,Boulder,CO,80309, United States,40.007581,-105.2659417,ChIJwR6cajTsa4cR2TH0qKTVKAM
University of Colorado at Colorado Springs,uccs.edu,1420 Austin Bluffs Pkwy, Colorado Springs,CO,80918, United States,38.8942547,-104.8025276,ChIJnTn-iKBPE4cRxFjAYjnfypI
University of Colorado at Denver,cudenver.edu,1201 Larimer St, Denver,CO,80204, United States,39.7463895,-105.0023325,ChIJ0y80fcV4bIcRlGBBOBQ0Kq4
University of Colorado Health Sciences Center,hsc.colorado.edu,13001 E 17th Pl, Aurora,CO,80045, United States,39.7450574,-104.8376073,ChIJ2Xf98E5jbIcR-R-pnK4QBTY
University of Connecticut,uconn.edu,369 Fairfield Way,Storrs,CT,6269, United States,41.8077414,-72.2539805,ChIJC-MFejmK5okR6oVsKUtvbLI
University of Dallas,udallas.edu,1845 E Northgate Dr, Irving,TX,75062, United States,32.8481339,-96.9216857,ChIJBbyDadOCToYRhUJB-9eSsMY
University of Dayton,udayton.edu,300 College Park, Dayton,OH,45469, United States,39.7393,-84.1799675,ChIJg62gSx6EQIgR4HfZrMShfvU
University of Delaware,udel.edu,181 S College Ave,Newark,DE,19716, United States,39.6779504,-75.7506114,ChIJpelbVi6qx4kRceNYY0T-LsA
University of Denver,du.edu,2199 S University Blvd, Denver,CO,80208, United States,39.6766174,-104.9618965,ChIJYafenBV-bIcR2ScPxyGnmHE
University of the District of Columbia,udc.edu,4200 Connecticut Ave NW, Washington,DC,20008, United States,38.9446745,-77.0656341,ChIJVU_AKM_Jt4kRjiZH9N_eGiw
University of Detroit Mercy,udmercy.edu,4001 W McNichols Rd, Detroit,MI,48221, United States,42.414062,-83.1379029,ChIJb_GQVjvMJIgRX0sz5hazau0
University of Dubuque,dbq.edu,2000 University Ave, Dubuque,IA,52001, United States,42.4952453,-90.6956357,ChIJtdlS72gs44cRo48JoUQaNAU
University of Evansville,evansville.edu,1800 Lincoln Ave, Evansville,IN,47714, United States,37.9699451,-87.5317779,ChIJjzLRQKIqbogR7AOQfl9w7TY
University of Florida,ufl.edu,1545 W University Ave,Gainesville,FL,32611, United States,29.6436325,-82.3549302,ChIJdZLk-wyj6IgRhpg9FN7gbyA
University of Georgia,uga.edu,810 S Lumpkin St,Athens,GA,30602, United States,33.9480053,-83.3773221,ChIJv6b7OGAT9ogRdO9Au2idhN8
University of Great Falls,ugf.edu,1301 20th St S, Great Falls,MT,59405, United States,47.4901619,-111.270432,ChIJYcBeQbA3QlMRW51_gxGzTus
University of Hartford,hartford.edu,200 Bloomfield Ave, West Hartford,CT,6117, United States,41.7985989,-72.7140002,ChIJv3VY6jWr54kRF9vsAZnO8n4
University of Hawaii at Hilo Physics and Astronomy,uhh.hawaii.edu,200 W Kawili St, Hilo,HI,96720, United States,19.701015,-155.0814688,ChIJtXNoWjhLUnkRIzppYurNPPU
University of Hawaii at Manoa,hawaii.edu,2500 Campus Rd, Honolulu,HI,96822, United States,21.296939,-157.8171118,ChIJVdiAlZhtAHwR9NKOg97yY6w
University of Houston,uh.edu,4800 Calhoun Rd, Houston,TX,77004, United States,29.7199489,-95.3422334,ChIJmaG-jlq-QIYR50eCyn44nww
University of Idaho,uidaho.edu,875 Perimeter Dr, Moscow,ID,83844, United States,46.7288124,-117.0126084,ChIJ45eZeIYnoFQRbM2P2RtBZY8
University of Illinois at Chicago,uic.edu,1200 W Harrison St, Chicago,IL,60607, United States,41.8704497,-87.6674854,ChIJu8KXH-AsDogR3Nzbopo-A6Y
University of Illinois at Springfield,sangamon.edu,One William Maxwell Ln, Springfield,IL,62703, United States,39.7290207,-89.617654,ChIJbaYhxwY8dYgR9Ur98QmTtSM
University of Ilinois at Urbana-Champaign,uiuc.edu,901 West Illinois Street,Urbana,IL,61801, United States,40.1019523,-88.2271615,ChIJ6VUmqSTXDIgR-iZoBCUFPKU
University of Indianapolis,uindy.edu,1400 E Hanna Ave, Indianapolis,IN,46227, United States,39.709764,-86.1355187,ChIJIVAV5apba4gRx0uKXDFS38M
University of Iowa,uiowa.edu,930 Evashevski Dr,Iowa City,IA,52242, United States,41.6626963,-91.5548998,ChIJ__-_SfJB5IcRYTLnsT_j0Us
University of Kansas,ukans.edu,1450 Jayhawk Blvd, Lawrence,KS,66045, United States,38.9543439,-95.2557961,ChIJc9ao8zJvv4cRKIIjqyFOcVM
University of Kansas School of Medicine,kumc.edu,3901 Rainbow Blvd, Kansas City,KS,66160, United States,39.0561718,-94.6113929,ChIJJSAV_S7uwIcRDESuSdqQXoI
University of Kentucky,uky.edu,No Street,Lexington,KY,40506, United States,38.0306511,-84.5039697,ChIJZQxUxbZEQogRZ0KY7kqd_44
University of La Verne,ulaverne.edu,1950 3rd St, La Verne,CA,91750, United States,34.100854,-117.773235,ChIJ4b2qp00uw4ARfepBep1ZQ8E
University of Louisville,louisville.edu,2301 S 3rd St, Louisville,KY,40292, United States,38.2122761,-85.7585023,ChIJpcReaGYNaYgRU4n5sTByKDY
University of Maine System,maine.edu,147 Farmington Falls Rd, Farmington,ME,4938, United States,44.660192,-70.147104,ChIJbYC2-0OasUwR9uxtIcMFoEA
University of Maine,ume.maine.edu,No Street,Orono,ME,4469, United States,44.9012197,-68.6666508,ChIJLQG_uDaxr0wRhsdBytsNLpU
University of Maine at Farmington,umf.maine.edu,224 Main St, Farmington,ME,4938, United States,44.6679585,-70.1481254,ChIJUw7QqDeasUwR3iGcVxCKaf4
University of Maine at Fort Kent,umfk.maine.edu,23 University Dr, Fort Kent,ME,4743, United States,47.2503932,-68.5893022,ChIJBXcXuyBSvEwR4ABLBGTgedY
University of Maine at Machias,umm.maine.edu,116 Obrien Ave, Machias,ME,4654, United States,44.7096669,-67.4570216,ChIJL9NzHfTNqEwR_3AevOXQnes
University of Maine at Presque Island,umpi.maine.edu,181 Main St, Presque Isle,ME,4769, United States,46.6722917,-68.0162995,ChIJvaw566SuvEwR1GXDZUc_Eb0
University of Maryland at Baltimore,ab.umd.edu,220 N Arch St, Baltimore,MD,21201, United States,39.2924141,-76.6256048,ChIJI6cj5qYEyIkRAItfjFY5Izo
University of Maryland at Baltimore County,umbc.edu,1000 Hilltop Cir, Baltimore,MD,21250, United States,39.2556129,-76.7109751,ChIJy0u8mrUdyIkRPUDbqk2bEQc
University of Maryland at College Park,umcp.umd.edu,No Street,College Park,MD,20742, United States,38.9869183,-76.9425543,ChIJq6qaPr3Gt4kRmtrkpd2LjtQ
University of Maryland - University College,umuc.edu,1616 McCormick Dr, Upper Marlboro,MD,20774, United States,38.9120201,-76.8477051,ChIJf4xAHY3It4kRrYB1-NqtG8c
University of Massachusetts at Amherst,umass.edu,154 Hicks Way,Amherst,MA,1003, United States,42.3911569,-72.5267121,ChIJZfjw5HPS5okRBY4UiWBY1qA
University of Massachusetts at Dartmouth,umassd.edu,285 Old Westport Rd, North Dartmouth,MA,2747, United States,41.6292932,-71.0061561,ChIJhxAqMMz85IkR81zHLYaHjl4
University of Massachusetts at Lowell,uml.edu,220 Pawtucket St, Lowell,MA,1854, United States,42.6523578,-71.3259064,ChIJgzom-EWk44kRgIjXUdAYQzw
University of Memphis,memphis.edu,3720 Alumni Ave, Memphis,TN,38152, United States,35.118741,-89.937141,ChIJuUWRH7GGf4gR02q9z8MFJEk
University of Miami,miami.edu,1320 S Dixie Hwy, Coral Gables,FL,33146, United States,25.7191685,-80.2771253,ChIJfTjGHwK42YgRzjHwQarPwDg
University of Michigan-Ann Arbor,umich.edu,500 S State St, Ann Arbor,MI,48109, United States,42.2780436,-83.7382241,ChIJARfe5ziuPIgR45fpeFFOoVs
University of Michigan-Dearborn,umd.umich.edu,4901 Evergreen Rd, Dearborn,MI,48128, United States,42.318409,-83.233202,ChIJTwADdHQ1O4gRWHcjTefsvDc
University of Minnesota,umn.edu,123 SE Harvard St,Minneapolis,MN,55455, United States,44.97399,-93.2277285,ChIJ_8cK92kts1IReJnfUqEXEuM
University of Minnesota-Crookston,crk.umn.edu,2900 University Ave, Crookston,MN,56716, United States,47.7998548,-96.6072394,ChIJ077pOsBbxlIRNiFSYo2eGWQ
University of Minnesota-Duluth,d.umn.edu,1049 University Dr, Duluth,MN,55812, United States,46.8186613,-92.0835669,ChIJpy4Qmdisr1IRNC8MswLvJqA
University of Minnesota-Morris,mrs.umn.edu,600 East 4th Street, Morris,MN,56267, United States,45.5890317,-95.8969661,ChIJmWzuDkOty1IR-dneb_vGTGc
University of Minnesota-Twin Cities,umn.edu,614 Delaware St SE,Minneapolis,MN,55455, United States,44.97399,-93.2277285,ChIJ_8cK92kts1IReJnfUqEXEuM
University of Mississippi,olemiss.edu,617 All American Drive,University,MS,38677, United States,34.3647324,-89.538443,ChIJ3VDG0o96gIgR7lN-OjtyFbw
University of Missouri-Columbia,missouri.edu,403 Cornell Hall,Columbia,MO,65211, United States,38.9403808,-92.3277375,ChIJOYftBZW33IcRSPsHnDIFg8E
University of Missouri-Kansas City,umkc.edu,5100 Rockhill Rd, Kansas City,MO,64110, United States,39.0335539,-94.5760259,ChIJ856Hn5DvwIcRyBVAa2NC8JM
University of Missouri-Rolla,umr.edu,1201 N State St, Rolla,MO,65409, United States,37.953451,-91.7755727,ChIJ25I2vchU2ocRq1KL04qpuT8
University of Missouri-Saint Louis,umsl.edu,1 University Boulevard, St. Louis,MO,63121, United States,38.7092401,-90.30828,ChIJH101H_M134cRrGJtadYdKuc
University of Montana,umt.edu,32 Campus Dr, Missoula,MT,59812, United States,46.8600672,-113.9852081,ChIJyxWY8TPMXVMRv5rKRoVrKZw
University of Nebraska Kearney,unk.edu,2504 9th Ave, Kearney,NE,68849, United States,40.7011879,-99.1014292,ChIJBf3BFp9OmYcRIMqyiRdIGT4
University of Nebraska Lincoln,unl.edu,1400 R St, Lincoln,NE,68588, United States,40.8201966,-96.7004763,ChIJvc2mUKe-locRjztC-SI8jV0
University of Nebraska Omaha,unomaha.edu,6001 Dodge St, Omaha,NE,68182, United States,41.2582497,-96.0107049,ChIJ-5r4wLuNk4cRT3hXWKWmvk0
University of Nevada Las Vegas,unlv.edu,4505 S Maryland Pkwy, Las Vegas,NV,89154, United States,36.1085197,-115.1431709,ChIJX-B-mQHFyIARxkJvHMEXgeM
University of Nevada Reno,unr.edu,1664 N Virginia St, Reno,NV,89557, United States,39.5441917,-119.816397,ChIJH9FLh9dGmYARGNb-koliheM
University of New England,une.edu,11 Hills Beach Rd, Biddeford,ME,4005, United States,43.4582904,-70.3865402,ChIJhW93xEemskwRSnsYydkDJ0w
University of New Hampshire Durham,unh.edu,105 Main St, Durham,NH,3824, United States,43.138948,-70.9370252,ChIJgW7jELyT4okRNrwKS0kIoT0
University of New Haven,newhaven.edu,300 Boston Post Rd, West Haven,CT,6516, United States,41.2907035,-72.9616437,ChIJsTWBmJPY54kRggD9-gQI4wc
University of New Mexico,unm.edu,300 Cornell Dr NW,Albuquerque,NM,87131, United States,35.0843187,-106.6197812,ChIJvfGBJFoLIocRR9NeHTbHd3c
University of New Orleans,uno.edu,2000 Lakeshore Dr, New Orleans,LA,70148, United States,30.0285959,-90.0660365,ChIJjeKZgi-pIIYR7TriS8y_I-I
University of North Carolina at Asheville,unca.edu,1 University Heights, Asheville,NC,28804, United States,35.6162921,-82.5673127,ChIJc62H4EuLWYgRuh1Xif87e8Y
University of North Carolina at Chapel Hill,unc.edu,200 Bynum Hall,Chapel Hill,NC,27599, United States,35.9049122,-79.0469134,ChIJ66oXy9LCrIkR4OCXZJfwO7M
University of North Carolina at Charlotte,uncc.edu,9201 University City Blvd, Charlotte,NC,28223, United States,35.3070929,-80.735164,ChIJVyOp0BocVIgR8yST8fdnP2s
University of North Carolina at Greensboro,uncg.edu,1400 Spring Garden St, Greensboro,NC,27412, United States,36.0689296,-79.8101975,ChIJl8BtURUZU4gRp5s1sVp3G6Q
University of North Carolina at Wilmington,uncwil.edu,601 S College Rd, Wilmington,NC,28403, United States,34.22494,-77.8701266,ChIJ3T69k_r0qYkRht53ow86K4U
University of North Dakota,und.nodak.edu,3501 University Ave,Grand Forks,ND,58202, United States,47.922891,-97.0768014,ChIJOybkamqBxlIRvjTIdOflCsw
University of North Florida,unf.edu,1 UNF Dr, Jacksonville,FL,32224, United States,30.2661204,-81.5072314,ChIJU2DTHbRK5IgRUr0uDAtS8Pw
University of North Texas,unt.edu,1155 Union Cir, Denton,TX,76203, United States,33.207488,-97.1525862,ChIJyY815HPKTYYRCmlH-kWfvQs
University of North Texas Health Science Center,hsc.unt.edu,3500 Camp Bowie Blvd, Fort Worth,TX,76107, United States,32.7500894,-97.3688754,ChIJQcyAaOpzToYRXGKpviu88es
University of Northern Colorado,univnorthco.edu,501 20th St, Greeley,CO,80639, United States,40.4055121,-104.6960383,ChIJizSkwJqhbocRR7m-nM0r8ww
University of Northern Iowa,uni.edu,1227 W 27th St, Cedar Falls,IA,50614, United States,42.5133893,-92.4620034,ChIJLQQF0BpT5YcRIkUAbLnD4XU
University of Notre Dame,nd.edu,221 Hesburgh Library,Notre Dame,IN,46556, United States,41.7055716,-86.2353388,ChIJzTX8a1fNFogRt9mfZcvjK1o
University of Oklahoma,uoknor.edu,660 Parrington Oval, Norman,OK,73019, United States,35.2058936,-97.4457137,ChIJu1B_5itosocRVB4EKYPPvko
University of Oregon,uoregon.edu,1585 E 13th Ave, Eugene,OR,97403, United States,44.0448302,-123.0726055,ChIJry4WWzoewVQRNqG2JkR4qiI
University of the Ozarks,ozarks.edu,415 N College Ave, Clarksville,AR,72830, United States,35.4758935,-93.4662875,ChIJ8yMZ6AZrzIcR73wycoDJtQM
University of the Pacific,uop.edu,3601 Pacific Ave, Stockton,CA,95211, United States,37.9808152,-121.3120225,ChIJXbvRQKYNkIAREbcUV2eMSwg
University of Pennsylvania,upenn.edu,1 College Ln Hall Room 1,Philadelphia,PA,19104, United States,39.9522188,-75.1932137,ChIJwcw7f1rGxokRlP7WsqKm6gk
University of Phoenix,uophx.edu,1625 W Fountainhead Pkwy, Tempe,AZ,85282, United States,33.4021127,-111.9653835,ChIJLXqzSDgPK4cRpGaQ4KXbIrU
University of Pittsburgh,pitt.edu,4200 Fifth Ave, Pittsburgh,PA,15260, United States,40.4443533,-79.960835,ChIJH_Fa2SvyNIgRD60jDbYZ4VI
University of Pittsburgh at Johnstown,pitt.edu,450 Schoolhouse Rd, Johnstown,PA,15904, United States,40.267516,-78.835682,ChIJPTT9yuQPy4kR5x6sK5_gPKQ
University of Portland,uofport.edu,5000 N Willamette Blvd, Portland,OR,97203, United States,45.5732046,-122.7275712,ChIJSXgea4unlVQR4OMl2-AdEws
University of Puget Sound,ups.edu,1500 N Warner St, Tacoma,WA,98416, United States,47.261764,-122.481455,ChIJVVVVlQpVkFQRcJjyXh1BoEY
University of Redlands,uor.edu,1200 E Colton Ave, Redlands,CA,92374, United States,34.0630404,-117.1632426,ChIJ4bbRzfJV24ARI6NJUAdlTc8
University of Rhode Island,uri.edu,45 Upper College Rd, Kingston,RI,2881, United States,41.4860647,-71.5308537,ChIJ0Z8qo0645YkRbxrKvxasv-A
University of Richmond,urich.edu,28 Westhampton Way, Richmond,VA,23173, United States,37.5758681,-77.5409744,ChIJtXlSJ6IUsYkR_91m1Y4xCTE
University of Rochester,rochester.edu,500 Joseph C Wilson Blvd,Rochester,NY,14627, United States,43.1305531,-77.6260033,ChIJB6VZD8a01okR1-HdTNDsR2g
University of San Diego,acusd.edu,5998 Alcala Park, San Diego,CA,92110, United States,32.771917,-117.1882064,ChIJz4tlvLiq3oARaDq0CBbodNc
University of San Francisco,usfca.edu,2130 Fulton St, San Francisco,CA,94117, United States,37.7766466,-122.450683,ChIJuyASMUqHhYARTvh_g2_KVmo
University of Sarasota,sarasota.fl.us,8350 N Tamiami Trail, Sarasota,FL,34243, United States,27.3916533,-82.5626889,ChIJ7aqe730Vw4gRuAmSXmnkltk
University of Science & Arts of Oklahoma,usao.edu,600 S 43rd St, Philadelphia,PA,19104, United States,39.9468299,-75.2070979,ChIJ_RliEvPGxokRC2uU5Hs7tI0
University of Scranton,uofs.edu,800 Linden St, Scranton,PA,18510, United States,41.4055412,-75.6569784,ChIJwVugJNDexIkRdz2LMn3ULjY
University of Sioux Falls,thecoo.edu,1101 W 22nd St, Sioux Falls,SD,57105, United States,43.5312152,-96.7379007,ChIJ2UtdgvK1jocR5l35E-dCuug
University of Southern California,usc.edu,3709 Trousdale Pkwy,Los Angeles,CA,90089, United States,34.0223519,-118.285117,ChIJ7aVxnOTHwoARxKIntFtakKo
University of South Carolina,scarolina.edu,1600 Hampton St,Columbia,SC,29208, United States,33.996112,-81.0274276,ChIJG6ayLCi7-IgRTvV4IVRzvXg
University of South Carolina - Aiken,sc.edu,471 University Pkwy, Aiken,SC,29801, United States,33.57299,-81.7710775,ChIJ7cEzu2RM-IgRcxmZ2aM84ZA
University of South Dakota,usd.edu,414 E Clark St, Vermillion,SD,57069, United States,42.7883015,-96.9253381,ChIJK45pYYlPjocRrGkM6HOVjHw
University of South Florida,usf.edu,4202 E Fowler Ave, Tampa,FL,33620, United States,28.0587031,-82.4138539,ChIJ0__Gw77HwogRapBRXB509LE
University of Southern Maine,usm.maine.edu,96 Falmouth St, Portland,ME,4103, United States,43.6622484,-70.2756936,ChIJT7a52gycskwRELyGVkZRo_U
University of Southern Mississippi,usm.edu,118 College Dr, Hattiesburg,MS,39406, United States,31.3303296,-89.3356963,ChIJ11wV3pfenIgREh-jedFnSLs
University of Southwestern Louisiana,usl.edu,104 East University Avenue, Lafayette,LA,70504, United States,30.2114404,-92.0204121,ChIJ9Rf3zpKcJIYRvduCalQ1hPM
University of Saint Thomas,stthom.edu,2115 Summit Ave, St Paul,MN,55105, United States,44.941751,-93.1914909,ChIJeY5Ype4p9ocRe6jbcLTrUo4
University of Saint Thomas,MN stthomas.edu,2115 Summit Ave, St Paul,MN,55105, United States,44.941751,-93.1914909,ChIJeY5Ype4p9ocRe6jbcLTrUo4
University of South Alabama,usouthal.edu,307 N. University Blvd. #130, Mobile,AL,36688, United States,30.6959406,-88.184236,ChIJyaTxdo2ym4gRJSXKvDgn710
University of Southern Colorado,uscolo.edu,2200 Bonforte Boulevard, Pueblo,CO,81001, United States,38.30854,-104.5760394,ChIJT5vdLe6jE4cRk7uubYXGdho
University of Southern Indiana,usi.edu,8600 University Blvd, Evansville,IN,47712, United States,37.9582437,-87.6746938,ChIJc1S25M7ScYgRzQ1gMnNAqQI
University of Tampa,utampa.edu,401 W Kennedy Blvd, Tampa,FL,33606, United States,27.9474881,-82.4671717,ChIJ90AFeYbEwogR2VUs2R8iu0s
University of Tennessee Knoxville,utk.edu,1000 Volunteer Boulevard,Knoxville,TN,37996, United States,35.9544013,-83.9294564,ChIJIW9KquAXXIgRTCm1SKcUSQo
University of Tennessee Martin,utm.edu,554 University St, Martin,TN,38237, United States,36.3419358,-88.8644041,ChIJgfmcu1RheYgRfZ-Vn-KQU3E
University of Texas at Arlington,uta.edu,701 S Nedderman Dr, Arlington,TX,76019, United States,32.7301078,-97.1162524,ChIJTVbJq219ToYRarfIhLC-XGw
University of Texas at Austin,utexas.edu,2110 Speedway,Austin,TX,78712, United States,30.2849185,-97.7340567,ChIJt8-EJZu1RIYR3iFKF0_uMYE
University of Texas at Brownsville,utb.edu,80 Fort Brown St, Brownsville,TX,78520, United States,25.8997691,-97.4922519,ChIJ1Ux531WUb4YR2DM09zDPspA
University of Texas at Dallas,utdallas.edu,800 W Campbell Rd, Richardson,TX,75080, United States,32.9857619,-96.7500993,ChIJpUpeif8hTIYRMROq6TKLCdk
University of Texas at El Paso,utep.edu,500 W University Ave, El Paso,TX,79968, United States,31.7708544,-106.5046216,ChIJ12KA7lpY54YRvOw3ZC-V-tE
University of Texas-Pan American,panam.edu,1201 West University Drive CESS 1.800, Edinburg,TX,78539, United States,26.3069259,-98.1747699,ChIJTYynFUuiZYYRDPE5FvAb3Cw
University of Texas at San Antonio,utsa.edu,1 UTSA Circle, San Antonio,TX,78249, United States,29.5830446,-98.6196556,ChIJ3X9l1n1mXIYRDCc6PJBc5SQ
University of Texas Health Science Center at Houston,uth.tmc.edu,7000 Fannin St #1200, Houston,TX,77030, United States,29.7034179,-95.4030452,ChIJrYUqx3LAQIYRaIkQm5BzMPs
University of Texas Health Science Center at San Antonio,uthscsa.edu,7703 Floyd Curl Dr, San Antonio,TX,78229, United States,29.5074654,-98.5753521,ChIJnS9zQ_5dXIYRAsKHir6Poi4
University of Texas at Tyler,uttyler.edu,3900 University Blvd, Tyler,TX,75799, United States,32.3156815,-95.2506136,ChIJFdifv8DNSYYR5imv_s8nKNw
University of Texas Health Center at Tyler,uthct.edu,11937 US-271, Tyler,TX,75708, United States,32.4257364,-95.2134454,ChIJ3eq2og7QSYYRlrgN0jPfVQ0
University of Texas M.D. Anderson Cancer Center,utmdacc.uth.tmc.edu,1515 Holcombe Blvd, Houston,TX,77030, United States,29.7071962,-95.3966904,ChIJ5ZepZkbAQIYRh31S-U6b48w
University of Texas Medical Branch,utmb.edu,301 University Blvd, Galveston,TX,77555, United States,29.3110199,-94.7777698,ChIJ8cALvzeeP4YRLPh4UfvffEU
University of Texas Southwestern Medical Center at Dallas,swmed.edu,5323 Harry Hines Blvd, Dallas,TX,75390, United States,32.8162611,-96.8455791,ChIJw0eFiAScToYRCfvv3PsUOeE
University of Toledo,utoledo.edu,2801 W Bancroft St, Toledo,OH,43606, United States,41.6580307,-83.6140701,ChIJn6btdMp4PIgRdbWVrQ87x_k
University of Tulsa,utulsa.edu,800 S Tucker Dr, Tulsa,OK,74104, United States,36.1519879,-95.946,ChIJM0KAdPzstocRBZORqOFl9K0
University of Utah,utah.edu,201 Presidents Cir, Salt Lake City,UT,84112, United States,40.7649368,-111.8421021,ChIJG_NN6OpfUocRbgk63tD8lN0
University of Vermont,uvm.edu,411 Main St,Burlington,VT,5405, United States,44.4778528,-73.1964637,ChIJ8QzmvVt6ykwRsukBWj7Y9S0
University of Virginia Charlottesville,virginia.edu,400 Ray C. Hunt Drive,Charlottesville,VA,22902, United States,38.0335529,-78.5079772,ChIJ3cRJt0iGs4kRRliLzMIIUUA
University of Washington,washington.edu,322 Gowen Hall,Seattle,WA,98195, United States,47.6553351,-122.3035199,ChIJ6zWFnZIUkFQRoyu4AXksdGs
University of West Florida,uwf.edu,11000 University Pkwy, Pensacola,FL,32514, United States,30.5469345,-87.2160218,ChIJ1y1DrirrkIgRMqeGjijsErY
University of Wisconsin-Eau Claire,uwec.edu,105 Garfield Ave, Eau Claire,WI,54701, United States,44.7967459,-91.5034191,ChIJIZH5waG9-IcRdqEucPsnT44
University of Wisconsin-Green Bay,uwgb.edu,2420 Nicolet Dr, Green Bay,WI,54311, United States,44.5334749,-87.9288623,ChIJk3rKZB3mAogRvRkSDo4DXNM
University of Wisconsin-LaCrosse,uwlax.edu,1725 State St, La Crosse,WI,54601, United States,43.8160517,-91.2311516,ChIJMTIWZyJV-YcR9-BpSkEtbsM
University of Wisconsin-Madison,wisc.edu,550 Babcock Dr,Madison,WI,53706, United States,43.076592,-89.4124875,ChIJHUh_CpWsB4gRZDpzkeBl4Mk
University of Wisconsin-Milwaukee,uwm.edu,2311 E Hartford Ave,Milwaukee,WI,53211, United States,43.078263,-87.8819686,ChIJjVDD1DIfBYgRobAZVgpkl5Q
University of Wisconsin-Oshkosh,uwosh.edu,800 Algoma Blvd, Oshkosh,WI,54901, United States,44.0253186,-88.5510215,ChIJi0AICuTrA4gRZ7LIwRjs-Lg
University of Wisconsin-Parkside,uwp.edu,900 Wood Rd, Kenosha,WI,53144, United States,42.6476245,-87.8549878,ChIJ-XlLeYRdBYgR1ihPH2ex5w0
University of Wisconsin-Platteville,uwplatt.edu,1 University Plaza, Platteville,WI,53818, United States,42.7323713,-90.4872604,ChIJs2ZqqAkl_YcRyENM2k72byk
University of Wisconsin-River Falls,uwrf.edu,410 S 3rd St, River Falls,WI,54022, United States,44.8526697,-92.6206021,ChIJa5_1DC3l94cR9mNQnOZCNbY
University of Wisconsin-Stevens Point,uwsp.edu,2100 Main St, Stevens Point,WI,54481, United States,44.5294468,-89.5713776,ChIJ20CmIO1aAIgRWW0kYSxZ5_Q
University of Wisconsin-Stout,uwstout.edu,712 Broadway St S, Menomonie,WI,54751, United States,44.8715765,-91.9266989,ChIJTQWMb597-IcRbvad7Hv4z9M
University of Wisconsin-Superior,uwsuper.edu,1605 Catlin Ave, Superior,WI,54880, United States,46.717658,-92.0878849,ChIJfYYClJRRrlIRfjaetGImRkc
University of Wisconsin-Whitewater,uww.edu,800 W Main St, Whitewater,WI,53190, United States,42.8374028,-88.7440609,ChIJzxSWg47gBYgR3eD4KMRLN0w
University of Wyoming,uwyo.edu,1000 E University Ave, Laramie,WY,82071, United States,41.3148754,-105.5665744,ChIJIb1k6GuQaIcR7w2hzU_h7xo
Upper Iowa University,uiu.edu,605 Washington St, Fayette,IA,52142, United States,42.8387392,-91.7977833,ChIJue_d-TAg-4cRr4fbLVIWu1w
Utah State University,usu.edu,114 Old Main Hill,Logan,UT,84322, United States,41.745161,-111.8097425,ChIJ7Uuo731-VIcRHL1k1uZNQPw
Utah Valley State College,uvsc.edu,800 W University Pkwy, Orem,UT,84058, United States,40.2788306,-111.7151968,ChIJxfW57h6bTYcRoYrpE4Q9UmM
Valley City State University,vcsu.nodak.edu,101 College St SE, Valley City,ND,58072, United States,46.9184723,-98.0039752,ChIJIxGyEr6Uz1IRX8eyCZjTQyo
Valdosta State University,valdosta.peachnet.edu,1500 N Patterson St, Valdosta,GA,31698, United States,30.849115,-83.289214,ChIJaRTtXyBn7ogRnHzHxChmlS8
Valparaiso University,valpo.edu,1700 Chapel Dr, Valparaiso,IN,46383, United States,41.4639394,-87.0438894,ChIJ2zyuvGqaEYgRGLo8A2GYSGY
Vanderbilt University,vanderbilt.edu,2201 West End Ave, Nashville,TN,37235, United States,36.1447034,-86.8026551,ChIJR4DvpqRmZIgR1hU5F1UUUeo
Vassar College,vassar.edu,124 Raymond Ave, Poughkeepsie,NY,12604, United States,41.6867992,-73.8957002,ChIJTUtnglY-3YkRTNWCCGR9yOM
Vermont Technical College,vtc.vsc.edu,124 Admin Drive, Randolph Center,VT,5061, United States,43.938717,-72.604721,ChIJVVVVVRUgtUwRuBa8uAf3Dks
Villa Julie College,vjc.edu,1525 Greenspring Valley Rd, Stevenson,MD,21153, United States,39.4216638,-76.7012976,ChIJyZ6AlB0RyIkRb1TyGFQhMkA
Villanova University,vill.edu,800 Lancaster Ave, Villanova,PA,19085, United States,40.037056,-75.34358,ChIJAQAAAPw-xIkRFJvRdXGPrjs
Virginia Commonwealth University,vcu.edu,907 Floyd Ave, Richmond,VA,23284, United States,37.5489872,-77.4534286,ChIJ_3Le1yMRsYkRyBAUiaYRWBc
Virginia Intermont College,vic.edu,1013 Moore St, Bristol,VA,24201, United States,36.6048746,-82.1763338,ChIJ6-OtC3x2UIgR_8Yjpkk8SkA
Virginia Military Institute,vmi.edu,319 Letcher Ave, Lexington,VA,24450, United States,37.788981,-79.43946,ChIJnRX0frDLTIgRvHuFZoMEDxo
Virginia Polytechnic Institute and State University,vt.edu,"1325 Perry St, Blacksburg",Blacksburg,VA,24061, United States,37.2283843,-80.4234167,ChIJeZdL8BGVTYgR1ioWxRtS_ww
Virginia State University,vsu.edu,1 Hayden St, Petersburg,VA,23806, United States,37.2384613,-77.4198721,ChIJWXh_E2GmsYkRt9jhPKeUXxA
Virginia Wesleyan College,vwc.edu,5817 Wesleyan Dr, Virginia Beach,VA,23455, United States,36.8674624,-76.1866644,ChIJp4vsUXyWuokRrjLE177PdDU
Wabash College,wabash.edu,301 W Wabash Ave, Crawfordsville,IN,47933, United States,40.0378111,-86.9066552,ChIJNVUiARzWEogRr5iXPdfL5os
Wake Forest University,wfu.edu,1834 Wake Forest Rd, Winston-Salem,NC,27109, United States,36.1352495,-80.2763425,ChIJgcHyJPitU4gR8Cn9DCldgJ4
Walden University,waldenu.edu,100 S Washington Ave #900, Minneapolis,MN,55401, United States,44.9812864,-93.2656945,ChIJtRG1kWIts1IRpin5zgtgeE4
Walla Walla College,wwc.edu,204 S College Ave, College Place,WA,99324, United States,46.0464496,-118.3906389,ChIJSy-7d_tpolQR6-U_tu8vB2U
Warren Wilson College,warren-wilson.edu,701 Warren Wilson Rd, Swannanoa,NC,28778, United States,35.611133,-82.442286,ChIJuVcrTN32WYgR5nFzpcM7Wyo
Wartburg College,wartburg.edu,100 Wartburg Blvd, Waverly,IA,50677, United States,42.7285775,-92.4821589,ChIJcYTUabcJ8IcRHT1EAh1Gxi8
Washburn University,wuacc.edu,1700 SW College Ave, Topeka,KS,66621, United States,39.0333113,-95.7017075,ChIJlZ0DrcMCv4cRXItPbJSuLA4
Washington & Lee University,wlu.edu,204 W Washington St,Lexington,VA,24450, United States,47.7510741,-120.7401385,ChIJ-bDD5__lhVQRuvNfbGh4QpQ
Washington College,washcoll.edu,300 Washington Ave, Chestertown,MD,21620, United States,39.2180241,-76.0692262,ChIJ17UWR1mLx4kRyY2EINSLtQo
Washington State University,wsu.edu,370 Lighty Student Services Bldg,Pullman,WA,99164, United States,46.7319225,-117.1542121,ChIJb6hIyAWHn1QR23BXtaTyZfQ
Washington State University at Tri-Cities,wsu.edu,2710 Crimson Way, Richland,WA,99354, United States,46.3312695,-119.2637663,ChIJwSg2lJFkmFQRBCr6hGWrNQI
Washington State University at Vancouver,vancouver.wsu.edu,14204 NE Salmon Creek Ave, Vancouver,WA,98686, United States,45.731767,-122.632055,ChIJBSdGKw2ylVQRuSPlDSKiIXw
Washington University Saint Louis,wustl.edu,1 Brookings Dr, St. Louis,MO,63130, United States,38.6487895,-90.3107962,ChIJzw-cD0a12IcRaXY8GIGU-pQ
Wayne State University,wayne.edu,42 W Warren Ave, Detroit,MI,48202, United States,42.3591388,-83.0665462,ChIJQ9hCnbzSJIgRTl7fSYmWiLY
Waynesburg College,waynesburg.edu,51 W College St, Waynesburg,PA,15370, United States,39.8991472,-80.1865976,ChIJU_4Kk_ihNYgRbNCIcPH6n-8
Weber State University,weber.edu,3848 Harrison Blvd, Ogden,UT,84408, United States,41.1924454,-111.9418739,ChIJpSraDK8IU4cRBs5AsPHPTyw
Webster University,websteruniv.edu,470 E Lockwood Ave, Webster Groves,MO,63119, United States,38.5892883,-90.3437667,ChIJl_5ZzsnL2IcRjuMjqtcOnc0
Wellesley College,wellesley.edu,106 Central St, Wellesley,MA,2481, United States,42.2935733,-71.3059277,ChIJ9XNeocOG44kRNUefD17JNlo
Wells College,wells.edu,170 Main St, Aurora,NY,13026, United States,42.7451963,-76.6944152,ChIJW7nNprK90IkRe0xXGtykLLY
Wentworth Institute of Technology,wit.edu,550 Huntington Ave, Boston,MA,2115, United States,42.3360695,-71.0954018,ChIJM6z_-iB644kRYotVdX-FmF8
Wesley College,wesley.edu,120 N State St, Dover,DE,19901, United States,39.163227,-75.527717,ChIJT5d3MVN7x4kRA5h1-CLuF9A
Wesleyan University,wesleyan.edu,45 Wyllys Ave, Middletown,CT,6459, United States,41.5566104,-72.6569041,ChIJXW9dlmBK5okRc5XVHylhJho
West Chester University of Pennsylvania,wcupa.edu,700 S High St, West Chester,PA,19382, United States,39.9518653,-75.5999933,ChIJBxuyYRXxxokR88T7gl6xwio
West Coast University,wcula.edu,2411 W La Palma Ave, Anaheim,CA,92801, United States,33.8490867,-117.968486,ChIJmYuUpSoq3YARWHLVg77AaAo
West Georgia College,westga.edu,1601 Maple St, Carrollton,GA,30118, United States,33.5735587,-85.1027726,ChIJj3iY6Xwvi4gR9xCBgyuwiYg
West Liberty State College,wlsc.wvnet.edu,208 University Dr., West Liberty,WV,26074, United States,40.1624982,-80.6041219,ChIJT5ou9XDONYgRkNbzQ81VIl4
West Texas A&M University,wtamu.edu,2501 4th Ave, Canyon,TX,79016, United States,34.9829122,-101.9158947,ChIJfeoZaQJoAYcRt7c_wq72MFk
West Virginia University,wvu.edu,886 Chestnut Ridge Rd,Morgantown,WV,26506, United States,39.6361396,-79.9559358,ChIJ7dQgR3x7NYgRMNj61lX1ck0
West Virginia University at Parkersburg,wvup.wvnet.edu,300 Campus Dr, Parkersburg,WV,26104, United States,39.216755,-81.505728,ChIJRYnYCNeySYgRUU56JS30kPY
Western Carolina University,wcu.edu,1 University Way, Cullowhee,NC,28723, United States,35.3089224,-83.1843781,ChIJ61tBzBQUWYgRepd-FOC9Nj4
Western Connecticut State University,wcsu.ctstateu.edu,181 White St, Danbury,CT,6810, United States,41.4007198,-73.4449401,ChIJjTbUpWv_54kR1Kq8EXgm4T0
Western Illinois University,wiu.edu,1 University Cir, Macomb,IL,61455, United States,40.476174,-90.684401,ChIJrb9tVwf64IcR9qHja7Pv3IA
Western Kentucky University,wku.edu,1906 College Heights Blvd, Bowling Green,KY,42101, United States,36.9853543,-86.456138,ChIJ792CVtToZYgRQ_7SZGAR0mE
Western Maryland College,wmc.car.md.us,2 College Hill, Westminster,MD,21157, United States,39.5829905,-77.0037192,ChIJe32jaPtHyIkRysb8FzEpJp4
Western Michigan University,wmich.edu,1903 W Michigan Ave, Kalamazoo,MI,49008, United States,42.2837336,-85.6102507,ChIJrScPrtt3F4gRW2PquYYXfME
Western Montana College,wmc.edu,710 S Atlantic St, Dillon,MT,59725, United States,45.208243,-112.641233,ChIJaWcEUTsGWlMRjYW6rYHfwJU
Western New England College,wnec.edu,1215 Wilbraham Rd, Springfield,MA,1119, United States,42.1149784,-72.5186855,ChIJAQAAzNjm5okRobPDUQoSoDI
Western New Mexico University,wnmu.edu,1000 W College Ave, Silver City,NM,88062, United States,32.7769863,-108.2824915,ChIJd-Eys4LH2IYRudoXw_zpyGY
Western State College,wsc.colorado.edu,600 S Adams St, Gunnison,CO,81231, United States,38.54754,-106.917763,ChIJARXad9GSP4cR7klK2x38pZo
Western Washington University,wwu.edu,516 High St, Bellingham,WA,98225, United States,48.7342883,-122.4866109,ChIJzRXJTMqjhVQRwPK6TN4mSag
Westfield State College,wsc.mass.edu,577 Western Ave, Westfield,MA,1086, United States,42.1318254,-72.7941529,ChIJZZMOM9se54kRjnMZAZFN9A4
Westminster College,westminster.edu,1840 S 1300 E, Salt Lake City,UT,84105, United States,40.7315104,-111.8551883,ChIJiYl3tgJgUocR7JmoA-OBKQo
Westminster College,westminster-mo.edu,1840 S 1300 E, Salt Lake City,UT,84105, United States,40.7315104,-111.8551883,ChIJiYl3tgJgUocR7JmoA-OBKQo
Westminster College of Salt Lake City,wcslc.edu,1840 S 1300 E, Salt Lake City,UT,84105, United States,40.7315104,-111.8551883,ChIJiYl3tgJgUocR7JmoA-OBKQo
Westminster Theological Seminary,wts.edu,2960 Church Rd, Glenside,PA,19038, United States,40.099232,-75.175747,ChIJcZe4dxW6xokRHFW79h-9VTQ
Westmont College,westmont.edu,955 La Paz Road, Santa Barbara,CA,93108, United States,34.4488434,-119.6610313,ChIJCW-OYxoT6YARscj3JVp9ZfE
Wheaton College,wheaton.edu,501 College Ave, Wheaton,IL,60187, United States,41.86833,-88.099622,ChIJaUtqmoZUDogRAzXnyzaweQM
Wheaton College Norton MA,wheatonma.edu,26 E Main St, Norton,MA,2766, United States,41.9660374,-71.1842241,ChIJS9fNUHGK5IkRDmP8e7k8Qdw
Wheeling Jesuit College,wjc.edu,316 Washington Ave, Wheeling,WV,26003, United States,40.0711202,-80.6906317,ChIJd_bAnkXaNYgRlPuEdrkz-0c
Whitman College,whitman.edu,345 Boyer Ave, Walla Walla,WA,99362, United States,46.0705799,-118.3306351,ChIJmwwNSolqolQRAbh-B9WoBIc
Whittier College,whittier.edu,13406 Philadelphia St, Whittier,CA,90608, United States,33.9787932,-118.0322842,ChIJC3NE12wzw4ARJhDzypOg35w
Whitworth College,whitworth.edu,300 W Hawthorne Rd, Spokane,WA,99251, United States,47.7548728,-117.4178623,ChIJRSH5GWkcnlQRlQSPm-APxKo
Wichita State University,twsu.edu,1845 Fairmount St, Wichita,KS,67260, United States,37.7193933,-97.2928693,ChIJSYDXm-niuocR-2Sr9ilwbx4
Widener University,widener.edu,One University Pl, Chester,PA,19013, United States,39.8633562,-75.3566753,ChIJfQxuOgjoxokRAu4ODIH1-_s
Wilberforce University,wilberforce.edu,1055 N Bickett Rd, Wilberforce,OH,45384, United States,39.710638,-83.878929,ChIJAXa9EbqjQIgRuY-tP_iB2h0
Wilkes University,wilkes.edu,84 W South St, Wilkes-Barre,PA,18701, United States,41.2448632,-75.888107,ChIJeVAuvIcaxYkRH8rFOSB7d_I
Willamette University,willamette.edu,900 State St, Salem,OR,97301, United States,44.9359709,-123.0318598,ChIJ8-6XLxX_v1QRA-zL7K58l0E
William Howard Taft University,taftu.edu,3700 S Susan St, Santa Ana,CA,92704, United States,33.6975491,-117.9141837,ChIJe9oLUq3Y3IAR-vyOJ-YcDn4
William Jewell College,jewell.edu,500 College Hill, Liberty,MO,64068, United States,39.2473119,-94.412117,ChIJxSPexERVwIcRb_M7t0CvrAY
William Penn College,wmpenn.edu,201 W Trueblood Ave, Oskaloosa,IA,52577, United States,41.3092911,-92.6476581,ChIJY1mNF7hN74cRqyI-r55dERw
William Paterson College,wilpaterson.edu, 300 Pompton Rd,Wayne,NJ,7470, United States,40.9460061,-74.1981377,ChIJK76amnb9wokRGM77ijfa8Ws
William Woods University,wmwoods.edu,1 University Ave, Fulton,MO,65251, United States,38.8624839,-91.949568,ChIJe3rmNBRZ24cR8K7-WYSF5yc
Williams College,williams.edu,880 Main St, Williamstown,MA,1267, United States,42.7128038,-73.2030214,ChIJhRgKChW64IkRoFsHduqOYHs
Wilmington College,wilmington.edu,1870 Quaker Way, Wilmington,OH,45177, United States,39.4447895,-83.8181626,ChIJFyP7eOPGQIgRT8lN4EuaiKs
Winona State University,winona.msus.edu,175 W Mark St, Winona,MN,55987, United States,44.0473997,-91.6432837,ChIJm4iTegdt-YcRtzoAGerKZYY
Winthrop University,winthrop.edu,701 Oakland Ave, Rock Hill,SC,29733, United States,34.9395142,-81.0316204,ChIJ6__1m-KIVogRqwcjdUU6s7M
Wittenberg University,wittenberg.edu,200 W Ward St, Springfield,OH,45504, United States,39.9365496,-83.8139029,ChIJN66wjahbP4gRW98VHWdPYCo
Wofford College,wofford.edu,429 N Church St, Spartanburg,SC,29303, United States,34.9580657,-81.9344902,ChIJh6G9Z-51V4gRvnIu516FzYk
Woodbury University,woodburyu.edu,7500 N Glenoaks Blvd, Burbank,CA,91504, United States,34.2084733,-118.3415134,ChIJf7Vj5QGVwoARDNiMTQyjP_Q
Worcester Polytechnic Institute,wpi.edu,100 Institute Rd, Worcester,MA,1609, United States,42.2746373,-71.806339,ChIJdzY3EFkG5IkRrW3cc4Yhw8Y
Wright State University,wright.edu,3640 Colonel Glenn Hwy, Fairborn,OH,45435, United States,39.7844997,-84.0579813,ChIJh0MzX_CcQIgRiHCYMZCOoAQ
Xavier University of Louisiana,xula.edu,1 Drexel Dr, New Orleans,LA,70125, United States,29.963863,-90.107084,ChIJv-eBxISlIIYRBw6gWmN6-VM
Yale University,yale.edu,38 Hillhouse Ave,New Haven,CT,6520, United States,41.3163244,-72.9223431,ChIJRUlizbbZ54kRJwTTtMSiNK4
York College of Pennsylvania,ycp.edu,441 Country Club Rd, York,PA,17403, United States,39.9467464,-76.7281509,ChIJ8dtDUVSJyIkRhT-C75UkuAw
Youngstown State University,ysu.edu,1 University Plaza, Youngstown,OH,44555, United States,41.10626,-80.6477,ChIJQdtleJzlM4gRIvHxK9YAbLU
